,AreaCode,TimeZone,accuracy,city,error,formatted_address,input_string,latitude,longitude,postcode,prov,staddress,status,stnumber
0,587,America/Edmonton,1,Starland County,,LSD-09 SEC-15 TWP-031 RGE-16 MER-4,04-16-031-15W4,51.663696,-112.178396,T0J0T0,AB,Township Road 313,1,16131
1,,,,,"{'description': 'Postal Code is not in the proper Format. 1', 'code': '005'}",,07-30-035-17W4,93895832053296.000000,-0.000000,,,,,
2,"780,587",America/Edmonton,1,Clearwater,,LSD-09 SEC-24 TWP-040 RGE-15 MER-5,05-15-040-24W4,52.490280,-116.018948,T0M2H0,AB,Township Road 405A N/A,1,14531
3,,,,,"{'description': 'Postal Code is not in the proper Format. 1', 'code': '005'}",,16-14-061-03W4,93895803531864.000000,-0.000000,,,,,
4,,,,,"{'description': 'Postal Code is not in the proper Format. 1', 'code': '005'}",,10-06-064-11W5,93895829114744.000000,-0.000000,,,,,
5,,,1,Opportunity,,LSD-09 SEC-03 TWP-073 RGE-20 MER-4,04-20-073-03W6,55.232323,-113.060789,T0G0K0,AB,Township Road 722A N/A,1,20501
6,,,,,"{'description': 'Postal Code is not in the proper Format. 1', 'code': '005'}",,08-11-012-13W4,93895796563632.000000,-0.000000,,,,,
7,,,,,"{'description': 'Postal Code is not in the proper Format. 1', 'code': '005'}",,08-04-034-26W4,93895872645800.000000,-0.000000,,,,,
8,,,,,"{'description': 'Postal Code is not in the proper Format. 1', 'code': '005'}",,11-18-035-04W5,93895820879432.000000,-0.000000,,,,,
9,,,,,"{'description': 'Postal Code is not in the proper Format. 1', 'code': '005'}",,06-35-040-12W4,93895948451208.000000,-0.000000,,,,,
10,306,America/Regina,,Big River,,SEC26 TP59 R5 W3M,03-05-059-26W4,53.958731,-106.898502,S0J0E0,SK,Revo Lake RD,,922
11,,,,,"{'description': 'Postal Code is not in the proper Format. 1', 'code': '005'}",,16-10-020-06W4,93895787712736.000000,-0.000000,,,,,
12,250,America/Edmonton,,Improvement District,,LSD-09 SEC-05 TWP-039 RGE-01 MER-6,06-01-039-05W4,52.622783,-118.000000,V0A1H9,AB,Range Road 280B N/A,,43324
13,,,,,"{'description': 'Postal Code is not in the proper Format. 1', 'code': '005'}",,03-07-049-07W5,93895880135328.000000,-0.000000,,,,,
14,,,,,"{'description': 'Postal Code is not in the proper Format. 1', 'code': '005'}",,06-28-069-08W5,93895798582024.000000,-0.000000,,,,,
15,,,,,"{'description': 'Postal Code is not in the proper Format. 1', 'code': '005'}",,03-28-053-18W5,93895810861672.000000,-0.000000,,,,,
16,,,,,"{'description': 'Postal Code is not in the proper Format. 1', 'code': '005'}",,07-29-041-01W4,93895975609312.000000,-0.000000,,,,,
17,,,,,"{'description': 'Postal Code is not in the proper Format. 1', 'code': '005'}",,06-25-049-06W5,93895818445248.000000,-0.000000,,,,,
18,,,,,"{'description': 'Postal Code is not in the proper Format. 1', 'code': '005'}",,08-22-054-19W5,93895812936384.000000,-0.000000,,,,,
19,,,,,"{'description': 'Postal Code is not in the proper Format. 1', 'code': '005'}",,01-27-064-18W5,93895786139768.000000,-0.000000,,,,,
20,,,,,"{'description': 'Postal Code is not in the proper Format. 1', 'code': '005'}",,06-32-077-06W4,93895783039864.000000,-0.000000,,,,,
21,,,,,"{'description': 'Postal Code is not in the proper Format. 1', 'code': '005'}",,12-09-093-12W4,93895774139040.000000,-0.000000,,,,,
22,,,,,"{'description': 'Postal Code is not in the proper Format. 1', 'code': '005'}",,02-09-110-08W6,93895815476296.000000,-0.000000,,,,,
23,,,,,"{'description': 'Postal Code is not in the proper Format. 1', 'code': '005'}",,01-20-062-19W4,93895818464512.000000,-0.000000,,,,,
24,,,,,"{'description': 'Postal Code is not in the proper Format. 1', 'code': '005'}",,10-13-031-21W4,93895775126664.000000,-0.000000,,,,,
25,,,,,"{'description': 'Postal Code is not in the proper Format. 1', 'code': '005'}",,12-19-045-06W4,93895956744424.000000,-0.000000,,,,,
26,"780,587",America/Edmonton,1,Camrose County,,LSD-09 SEC-07 TWP-047 RGE-21 MER-4,04-21-047-07W5,53.047357,-113.025412,T0C0L0,AB,Range Road 214,1,47203
27,,,,,"{'description': 'Postal Code is not in the proper Format. 1', 'code': '005'}",,08-26-049-07W5,93895950385488.000000,-0.000000,,,,,
28,,,,,"{'description': 'Postal Code is not in the proper Format. 1', 'code': '005'}",,01-33-019-26W4,93895971569760.000000,-0.000000,,,,,
29,,,,,"{'description': 'Postal Code is not in the proper Format. 1', 'code': '005'}",,12-20-041-23W4,93895791511248.000000,-0.000000,,,,,
30,,,,,"{'description': 'Postal Code is not in the proper Format. 1', 'code': '005'}",,13-12-014-19W4,93895832584064.000000,-0.000000,,,,,
31,,,1,Red Deer County,,LSD-09 SEC-06 TWP-035 RGE-28 MER-4,04-28-035-06W5,51.976730,-113.977776,T4G1V1,AB,Range Road 285,1,35047
32,,,,,"{'description': 'Postal Code is not in the proper Format. 1', 'code': '005'}",,16-29-066-10W5,93895785255408.000000,-0.000000,,,,,
33,,,,,"{'description': 'Postal Code is not in the proper Format. 1', 'code': '005'}",,05-34-085-09W5,93895841924664.000000,-0.000000,,,,,
34,,,,,"{'description': 'Postal Code is not in the proper Format. 1', 'code': '005'}",,13-23-025-26W4,93895860971360.000000,-0.000000,,,,,
35,,,,,"{'description': 'Postal Code is not in the proper Format. 1', 'code': '005'}",,12-10-048-26W4,93895945347296.000000,-0.000000,,,,,
36,,,,,"{'description': 'Postal Code is not in the proper Format. 1', 'code': '005'}",,09-34-049-22W4,93895800551856.000000,-0.000000,,,,,
37,,,,,"{'description': 'Postal Code is not in the proper Format. 1', 'code': '005'}",,13-33-018-14W4,93895986685112.000000,-0.000000,,,,,
38,,,,,"{'description': 'Postal Code is not in the proper Format. 1', 'code': '005'}",,07-03-025-17W4,93895774406488.000000,-0.000000,,,,,
39,,,,,"{'description': 'Postal Code is not in the proper Format. 1', 'code': '005'}",,01-29-033-07W5,93895960219776.000000,-0.000000,,,,,
40,403,America/Edmonton,1,Red Deer County,,LSD-09 SEC-21 TWP-035 RGE-02 MER-5,05-02-035-21W4,52.028047,-114.215890,T4G0M8,AB,Range Road 23,1,35441
41,,,,,"{'description': 'Postal Code is not in the proper Format. 1', 'code': '005'}",,10-11-041-12W4,93895824448064.000000,-0.000000,,,,,
42,,,,,"{'description': 'Postal Code is not in the proper Format. 1', 'code': '005'}",,08-11-048-04W5,93895793070392.000000,-0.000000,,,,,
43,,,,,"{'description': 'Postal Code is not in the proper Format. 1', 'code': '005'}",,12-04-049-07W5,93895889310128.000000,-0.000000,,,,,
44,,,,,"{'description': 'Postal Code is not in the proper Format. 1', 'code': '005'}",,13-16-034-04W5,93895807181504.000000,-0.000000,,,,,
45,587,America/Edmonton,,Improvement District No. 12 Jasper Park,,LSD-09 SEC-16 TWP-047 RGE-01 MER-6,06-01-047-16W5,53.040165,-118.090878,T0E1E0,AB,16 HWY,,47267
46,,,,,"{'description': 'Postal Code is not in the proper Format. 1', 'code': '005'}",,03-23-048-08W5,93895992125064.000000,-0.000000,,,,,
47,,,,,"{'description': 'Postal Code is not in the proper Format. 1', 'code': '005'}",,03-27-086-09W5,93895798728504.000000,-0.000000,,,,,
48,,,,,"{'description': 'Postal Code is not in the proper Format. 1', 'code': '005'}",,09-22-061-08W5,93895851038360.000000,-0.000000,,,,,
49,,,,,"{'description': 'Postal Code is not in the proper Format. 1', 'code': '005'}",,13-29-060-05W4,93895782699592.000000,-0.000000,,,,,
50,,,,,"{'description': 'Postal Code is not in the proper Format. 1', 'code': '005'}",,14-31-033-04W5,93895786115216.000000,-0.000000,,,,,
51,,,,,"{'description': 'Postal Code is not in the proper Format. 1', 'code': '005'}",,15-20-049-27W4,93895808472792.000000,-0.000000,,,,,
52,250,America/Edmonton,1,Improvement District,,LSD-09 SEC-04 TWP-033 RGE-19 MER-5,05-19-033-04W5,51.818927,-116.597740,V0A1G0,AB,Range Road 191A,1,33131
53,,,,,"{'description': 'Postal Code is not in the proper Format. 1', 'code': '005'}",,08-33-042-07W5,93895813156304.000000,-0.000000,,,,,
54,,,,,"{'description': 'Postal Code is not in the proper Format. 1', 'code': '005'}",,13-22-048-27W4,93895771202256.000000,-0.000000,,,,,
55,587,America/Edmonton,1,Beaver County,,LSD-09 SEC-18 TWP-051 RGE-19 MER-4,04-19-051-18W5,53.405069,-112.779068,T0B4J1,AB,Range Road 195,1,51221
56,,,,,"{'description': 'Postal Code is not in the proper Format. 1', 'code': '005'}",,16-30-054-17W5,93895784651816.000000,-0.000000,,,,,
57,,,,,"{'description': 'Postal Code is not in the proper Format. 1', 'code': '005'}",,11-10-063-09W4,93895775581880.000000,-0.000000,,,,,
58,,,,,"{'description': 'Postal Code is not in the proper Format. 1', 'code': '005'}",,07-13-105-02W6,93895782382168.000000,-0.000000,,,,,
59,,,,,"{'description': 'Postal Code is not in the proper Format. 1', 'code': '005'}",,04-32-039-08W5,93895810567688.000000,-0.000000,,,,,
60,,,1,Thorhild County No. 7,,LSD-09 SEC-04 TWP-061 RGE-22 MER-4,04-22-061-04W4,54.239535,-113.225482,T0E3J0,AB,Range Road 223,1,61001
61,,,,,"{'description': 'Postal Code is not in the proper Format. 1', 'code': '005'}",,05-31-071-08W6,93895850808752.000000,-0.000000,,,,,
62,587,America/Edmonton,1,Starland,,LSD-09 SEC-07 TWP-033 RGE-20 MER-4,07-33-020-04W5,51.823940,-112.816596,T0J2X0,AB,Township Road 332 N/A,1,20501
63,,,,,"{'description': 'Postal Code is not in the proper Format. 1', 'code': '005'}",,12-12-025-22W4,93895981421200.000000,-0.000000,,,,,
64,,,,,"{'description': 'Postal Code is not in the proper Format. 1', 'code': '005'}",,14-21-045-14W4,93895772028912.000000,-0.000000,,,,,
65,,,,,"{'description': 'Postal Code is not in the proper Format. 1', 'code': '005'}",,09-35-047-01W4,93895980039048.000000,-0.000000,,,,,
66,,,,,"{'description': 'Postal Code is not in the proper Format. 1', 'code': '005'}",,08-24-049-09W5,93895801165840.000000,-0.000000,,,,,
67,,,,,"{'description': 'Postal Code is not in the proper Format. 1', 'code': '005'}",,16-33-049-12W5,93895808000760.000000,-0.000000,,,,,
68,,,,,"{'description': 'Postal Code is not in the proper Format. 1', 'code': '005'}",,08-13-050-08W5,93895822956400.000000,-0.000000,,,,,
69,,,,,"{'description': 'Postal Code is not in the proper Format. 1', 'code': '005'}",,03-11-110-07W6,93895901837112.000000,-0.000000,,,,,
70,"780,587",America/Edmonton,,Lesser Slave River,,LSD-09 SEC-06 TWP-070 RGE-03 MER-5,05-03-070-06W6,55.174790,-114.312131,T0G0N0,AB,2 HWY,,0
71,587,America/Edmonton,1,Cypress,,LSD-09 SEC-13 TWP-013 RGE-09 MER-4,04-09-013-13W4,50.106244,-111.096631,T1B2N0,AB,524 HWY,1,9001
72,,,,,"{'description': 'Postal Code is not in the proper Format. 1', 'code': '005'}",,08-03-050-26W4,93895901684536.000000,-0.000000,,,,,
73,,,,,"{'description': 'Postal Code is not in the proper Format. 1', 'code': '005'}",,08-20-065-10W5,93895816813488.000000,-0.000000,,,,,
74,,,,,"{'description': 'Postal Code is not in the proper Format. 1', 'code': '005'}",,14-35-032-02W5,93895876584080.000000,-0.000000,,,,,
75,,,,,"{'description': 'Postal Code is not in the proper Format. 1', 'code': '005'}",,12-31-073-10W6,93895813438736.000000,-0.000000,,,,,
76,,,1,Mountain View County,,LSD-09 SEC-04 TWP-032 RGE-05 MER-5,05-05-032-04W5,51.708106,-114.638252,T0M1X0,AB,Range Road 53A,1,31531
77,,,,,"{'description': 'Postal Code is not in the proper Format. 1', 'code': '005'}",,16-35-048-08W5,93895799545152.000000,-0.000000,,,,,
78,,,,,"{'description': 'Postal Code is not in the proper Format. 1', 'code': '005'}",,11-03-052-04W4,93895876537496.000000,-0.000000,,,,,
79,,,,,"{'description': 'Postal Code is not in the proper Format. 1', 'code': '005'}",,14-20-054-24W4,93895823784624.000000,-0.000000,,,,,
80,,,,,"{'description': 'Postal Code is not in the proper Format. 1', 'code': '005'}",,10-32-067-09W5,93895774129824.000000,-0.000000,,,,,
81,,,,,"{'description': 'Postal Code is not in the proper Format. 1', 'code': '005'}",,03-05-092-09W4,93895808564392.000000,-0.000000,,,,,
82,,,,,"{'description': 'Postal Code is not in the proper Format. 1', 'code': '005'}",,10-06-073-03W6,93895775760512.000000,-0.000000,,,,,
83,,,,,"{'description': 'Postal Code is not in the proper Format. 1', 'code': '005'}",,09-12-014-03W4,93895806413600.000000,-0.000000,,,,,
84,,,,,"{'description': 'Postal Code is not in the proper Format. 1', 'code': '005'}",,07-36-029-21W4,93895840526000.000000,-0.000000,,,,,
85,,,,,"{'description': 'Postal Code is not in the proper Format. 1', 'code': '005'}",,13-07-047-08W5,93895848273280.000000,-0.000000,,,,,
86,,,,,"{'description': 'Postal Code is not in the proper Format. 1', 'code': '005'}",,03-23-070-06W6,93895935470632.000000,-0.000000,,,,,
87,,,,,"{'description': 'Postal Code is not in the proper Format. 1', 'code': '005'}",,10-27-095-07W4,93895778011712.000000,-0.000000,,,,,
88,,,,,"{'description': 'Postal Code is not in the proper Format. 1', 'code': '005'}",,12-07-054-16W5,93895913656224.000000,-0.000000,,,,,
89,,,,,"{'description': 'Postal Code is not in the proper Format. 1', 'code': '005'}",,02-09-001-17W4,93895775229112.000000,-0.000000,,,,,
90,,,,,"{'description': 'Postal Code is not in the proper Format. 1', 'code': '005'}",,16-25-050-26W4,93895800249304.000000,-0.000000,,,,,
91,,,,,"{'description': 'Postal Code is not in the proper Format. 1', 'code': '005'}",,11-05-052-04W4,93895967362056.000000,-0.000000,,,,,
92,,,,,"{'description': 'Postal Code is not in the proper Format. 1', 'code': '005'}",,10-14-058-18W5,93895782313136.000000,-0.000000,,,,,
93,,,,,"{'description': 'Postal Code is not in the proper Format. 1', 'code': '005'}",,06-36-086-11W5,93895774935920.000000,-0.000000,,,,,
94,,,,,"{'description': 'Postal Code is not in the proper Format. 1', 'code': '005'}",,15-30-086-12W5,93895793084632.000000,-0.000000,,,,,
95,,,,,"{'description': 'Postal Code is not in the proper Format. 1', 'code': '005'}",,01-05-046-18W5,93895980332808.000000,-0.000000,,,,,
96,,,,,"{'description': 'Postal Code is not in the proper Format. 1', 'code': '005'}",,13-27-012-13W4,93895787531200.000000,-0.000000,,,,,
97,,,,,"{'description': 'Postal Code is not in the proper Format. 1', 'code': '005'}",,14-35-039-24W4,93895812818128.000000,-0.000000,,,,,
98,,,,,"{'description': 'Postal Code is not in the proper Format. 1', 'code': '005'}",,10-27-052-26W4,93895808370880.000000,-0.000000,,,,,
99,,,,,"{'description': 'Postal Code is not in the proper Format. 1', 'code': '005'}",,01-14-110-06W6,93895784099984.000000,-0.000000,,,,,
100,,,,,"{'description': 'Postal Code is not in the proper Format. 1', 'code': '005'}",,13-31-012-25W4,93895897200464.000000,-0.000000,,,,,
101,,,,,"{'description': 'Postal Code is not in the proper Format. 1', 'code': '005'}",,11-20-015-11W4,93895993906696.000000,-0.000000,,,,,
102,,,,,"{'description': 'Postal Code is not in the proper Format. 1', 'code': '005'}",,16-31-049-10W5,93895775010544.000000,-0.000000,,,,,
103,,,,,"{'description': 'Postal Code is not in the proper Format. 1', 'code': '005'}",,14-03-050-10W5,93895878208704.000000,-0.000000,,,,,
104,,,,,"{'description': 'Postal Code is not in the proper Format. 1', 'code': '005'}",,14-12-054-14W5,93895804519192.000000,-0.000000,,,,,
105,,,,,"{'description': 'Postal Code is not in the proper Format. 1', 'code': '005'}",,06-28-087-07W6,93895800270544.000000,-0.000000,,,,,
106,"780,587",America/Edmonton,1,Clearwater County,,LSD-09 SEC-07 TWP-038 RGE-16 MER-5,05-16-038-07W5,52.308814,-116.323098,T0M2H0,AB,Range Road 171A,1,39001
107,,,,,"{'description': 'Postal Code is not in the proper Format. 1', 'code': '005'}",,08-15-044-04W4,93895950797376.000000,-0.000000,,,,,
108,,,,,"{'description': 'Postal Code is not in the proper Format. 1', 'code': '005'}",,07-13-048-08W5,93895778360544.000000,-0.000000,,,,,
109,,,,,"{'description': 'Postal Code is not in the proper Format. 1', 'code': '005'}",,03-11-054-18W5,93895814787152.000000,-0.000000,,,,,
110,780,America/Edmonton,1,Lamont,,LSD-09 SEC-24 TWP-057 RGE-16 MER-4,04-16-057-24W4,53.947604,-112.232922,T8L2R0,AB,Township Road 574 N/A,1,16001
111,587,America/Edmonton,1,Camrose County,,LSD-09 SEC-21 TWP-048 RGE-18 MER-4,04-18-048-21W4,53.163294,-112.562526,T0B2M2,AB,Township Road 484,1,18337
112,,,,,"{'description': 'Postal Code is not in the proper Format. 1', 'code': '005'}",,08-21-048-07W5,93895775732400.000000,-0.000000,,,,,
113,780,America/Edmonton,1,Parkland County,,LSD-09 SEC-20 TWP-053 RGE-26 MER-4,04-26-053-20W5,53.584724,-113.787250,T8T0L9,AB,Range Road 264,1,53231
114,,,,,"{'description': 'Postal Code is not in the proper Format. 1', 'code': '005'}",,05-32-067-14W4,93895786078120.000000,-0.000000,,,,,
115,,,,,"{'description': 'Postal Code is not in the proper Format. 1', 'code': '005'}",,06-30-069-07W6,93895856539808.000000,-0.000000,,,,,
116,,,,,"{'description': 'Postal Code is not in the proper Format. 1', 'code': '005'}",,11-05-016-11W4,93895774063280.000000,-0.000000,,,,,
117,"780,587",America/Edmonton,,Yellowhead County,,LSD-09 SEC-01 TWP-043 RGE-22 MER-5,05-22-043-01W4,52.921033,-117.272606,T0E1X0,AB,Range Road 233A,,45505
118,,,,Fraser-Fort George H,,LSD-09 SEC-16 TWP-051 RGE-10 MER-6,06-10-051-16W5,53.245575,-119.619597,V0J1J0,BC,Horsey Creek RD,,8599
119,,,,,"{'description': 'Postal Code is not in the proper Format. 1', 'code': '005'}",,12-03-065-13W5,93895940533304.000000,-0.000000,,,,,
120,,,,,"{'description': 'Postal Code is not in the proper Format. 1', 'code': '005'}",,04-35-069-23W5,93895796539272.000000,-0.000000,,,,,
121,,,,,"{'description': 'Postal Code is not in the proper Format. 1', 'code': '005'}",,06-14-013-02W4,93895782198336.000000,-0.000000,,,,,
122,,,,,"{'description': 'Postal Code is not in the proper Format. 1', 'code': '005'}",,03-17-081-19W5,93895790544544.000000,-0.000000,,,,,
123,"403,587",America/Edmonton,1,Taber,,LSD-09 SEC-06 TWP-009 RGE-14 MER-4,06-09-014-04W4,49.698626,-111.878669,T0K0Z0,AB,Range Road 145,1,91073
124,,,,,"{'description': 'Postal Code is not in the proper Format. 1', 'code': '005'}",,13-22-055-05W4,93895883051320.000000,-0.000000,,,,,
125,,,,,"{'description': 'Postal Code is not in the proper Format. 1', 'code': '005'}",,13-22-055-05W4,93895883051320.000000,-0.000000,,,,,
126,,,,,"{'description': 'Postal Code is not in the proper Format. 1', 'code': '005'}",,13-22-055-05W4,93895883051320.000000,-0.000000,,,,,
127,,,,,"{'description': 'Postal Code is not in the proper Format. 1', 'code': '005'}",,13-22-055-05W4,93895883051320.000000,-0.000000,,,,,
128,,,,,"{'description': 'Postal Code is not in the proper Format. 1', 'code': '005'}",,13-22-055-05W4,93895883051320.000000,-0.000000,,,,,
129,,,,,"{'description': 'Postal Code is not in the proper Format. 1', 'code': '005'}",,07-22-013-21W4,93895848456672.000000,-0.000000,,,,,
130,587,America/Edmonton,1,Kneehill County,,LSD-09 SEC-16 TWP-032 RGE-22 MER-4,16-32-022-04W4,51.747132,-113.052204,T0M2J0,AB,836 HWY,1,32251
131,,,1,Clearwater,,LSD-09 SEC-03 TWP-041 RGE-09 MER-5,05-09-041-03W5,52.491676,-115.179155,T4T2A4,AB,Township Road 410 N/A,1,9105
132,,,,,"{'description': 'Postal Code is not in the proper Format. 1', 'code': '005'}",,08-33-052-02W4,93895804674200.000000,-0.000000,,,,,
133,,,,,"{'description': 'Postal Code is not in the proper Format. 1', 'code': '005'}",,07-31-057-16W5,93895815799976.000000,-0.000000,,,,,
134,,,1,Smoky Lake County,,LSD-09 SEC-05 TWP-058 RGE-13 MER-4,04-13-058-05W4,53.976865,-111.886100,T0B1T0,AB,Range Road 134,1,0
135,,,,,"{'description': 'Postal Code is not in the proper Format. 1', 'code': '005'}",,16-08-061-04W4,93895927310152.000000,-0.000000,,,,,
136,,,,,"{'description': 'Postal Code is not in the proper Format. 1', 'code': '005'}",,14-19-082-11W6,93895913803464.000000,-0.000000,,,,,
137,,,,,"{'description': 'Postal Code is not in the proper Format. 1', 'code': '005'}",,01-13-055-22W4,93895815299856.000000,-0.000000,,,,,
138,780,America/Edmonton,,Bighorn,,LSD-09 SEC-16 TWP-029 RGE-11 MER-5,16-29-011-05W4,51.611313,-115.391700,T8G1G6,AB,Panther RD,,1
139,,,,,"{'description': 'Postal Code is not in the proper Format. 1', 'code': '005'}",,10-04-026-12W4,93895798209752.000000,-0.000000,,,,,
140,,,,,"{'description': 'Postal Code is not in the proper Format. 1', 'code': '005'}",,08-21-037-03W4,93895887540824.000000,-0.000000,,,,,
141,,,,,"{'description': 'Postal Code is not in the proper Format. 1', 'code': '005'}",,01-24-044-05W4,93895813020240.000000,-0.000000,,,,,
142,,,,,"{'description': 'Postal Code is not in the proper Format. 1', 'code': '005'}",,02-19-045-08W4,93895778127280.000000,-0.000000,,,,,
143,,,,,"{'description': 'Postal Code is not in the proper Format. 1', 'code': '005'}",,14-07-048-15W5,93895791845528.000000,-0.000000,,,,,
144,,,,,"{'description': 'Postal Code is not in the proper Format. 1', 'code': '005'}",,10-21-080-09W5,93895794735800.000000,-0.000000,,,,,
145,,,,,"{'description': 'Postal Code is not in the proper Format. 1', 'code': '005'}",,14-30-081-15W5,93895816264560.000000,-0.000000,,,,,
146,,,,,"{'description': 'Postal Code is not in the proper Format. 1', 'code': '005'}",,01-08-026-02W5,93895919702224.000000,-0.000000,,,,,
147,,,,,"{'description': 'Postal Code is not in the proper Format. 1', 'code': '005'}",,04-30-057-04W4,93895803102576.000000,-0.000000,,,,,
148,,,,,"{'description': 'Postal Code is not in the proper Format. 1', 'code': '005'}",,08-08-036-20W4,93895824166000.000000,-0.000000,,,,,
149,,,,,"{'description': 'Postal Code is not in the proper Format. 1', 'code': '005'}",,09-12-048-08W5,93895783905280.000000,-0.000000,,,,,
150,,,,,"{'description': 'Postal Code is not in the proper Format. 1', 'code': '005'}",,02-31-052-25W4,93895985014248.000000,-0.000000,,,,,
151,,,,,"{'description': 'Postal Code is not in the proper Format. 1', 'code': '005'}",,06-35-052-13W5,93895781038256.000000,-0.000000,,,,,
152,,,,,"{'description': 'Postal Code is not in the proper Format. 1', 'code': '005'}",,16-19-071-18W5,93895904502400.000000,-0.000000,,,,,
153,,,,,"{'description': 'Postal Code is not in the proper Format. 1', 'code': '005'}",,NW-27-083-23W5,93895786473536.000000,-0.000000,,,,,
154,,,,,"{'description': 'Postal Code is not in the proper Format. 1', 'code': '005'}",,11-08-112-07W4,93895787740336.000000,-0.000000,,,,,
155,,,,,"{'description': 'Postal Code is not in the proper Format. 1', 'code': '005'}",,10-07-043-10W4,93895782801552.000000,-0.000000,,,,,
156,,,,,"{'description': 'Postal Code is not in the proper Format. 1', 'code': '005'}",,14-09-014-16W4,93895951604264.000000,-0.000000,,,,,
157,,,,,"{'description': 'Postal Code is not in the proper Format. 1', 'code': '005'}",,08-17-021-06W4,93895772656816.000000,-0.000000,,,,,
158,,,,,"{'description': 'Postal Code is not in the proper Format. 1', 'code': '005'}",,06-20-065-10W5,93895844774544.000000,-0.000000,,,,,
159,,,,,"{'description': 'Postal Code is not in the proper Format. 1', 'code': '005'}",,13-34-068-22W5,93895900573360.000000,-0.000000,,,,,
160,,,,,"{'description': 'Postal Code is not in the proper Format. 1', 'code': '005'}",,09-10-073-06W6,93895808259200.000000,-0.000000,,,,,
161,,,,,"{'description': 'Postal Code is not in the proper Format. 1', 'code': '005'}",,02-07-093-12W4,93895883646928.000000,-0.000000,,,,,
162,587,America/Edmonton,1,Beaver,,LSD-09 SEC-02 TWP-047 RGE-11 MER-4,04-11-047-02W5,53.030211,-111.493265,T9W4W1,AB,Township Road 471 N/A,1,11101
163,,,,,"{'description': 'Postal Code is not in the proper Format. 1', 'code': '005'}",,07-11-008-20W4,93895775191312.000000,-0.000000,,,,,
164,,,,,"{'description': 'Postal Code is not in the proper Format. 1', 'code': '005'}",,16-15-027-20W4,93895796442312.000000,-0.000000,,,,,
165,,,,,"{'description': 'Postal Code is not in the proper Format. 1', 'code': '005'}",,11-13-035-07W4,93895970803992.000000,-0.000000,,,,,
166,,,,,"{'description': 'Postal Code is not in the proper Format. 1', 'code': '005'}",,01-22-077-11W6,93895788673136.000000,-0.000000,,,,,
167,,,,,"{'description': 'Postal Code is not in the proper Format. 1', 'code': '005'}",,10-30-028-03W5,93895773097016.000000,-0.000000,,,,,
168,,,,,"{'description': 'Postal Code is not in the proper Format. 1', 'code': '005'}",,13-26-036-06W5,93895962438096.000000,-0.000000,,,,,
169,,,,,"{'description': 'Postal Code is not in the proper Format. 1', 'code': '005'}",,08-15-041-14W4,93895808624808.000000,-0.000000,,,,,
170,,,,,"{'description': 'Postal Code is not in the proper Format. 1', 'code': '005'}",,07-34-049-01W4,93895772029416.000000,-0.000000,,,,,
171,,,,,"{'description': 'Postal Code is not in the proper Format. 1', 'code': '005'}",,16-06-063-21W5,93895965398800.000000,-0.000000,,,,,
172,,,,,"{'description': 'Postal Code is not in the proper Format. 1', 'code': '005'}",,15-16-073-05W5,93895792301936.000000,-0.000000,,,,,
173,,,,,"{'description': 'Postal Code is not in the proper Format. 1', 'code': '005'}",,01-12-075-08W6,93895799829896.000000,-0.000000,,,,,
174,,,,,"{'description': 'Postal Code is not in the proper Format. 1', 'code': '005'}",,16-01-109-06W6,93895805868952.000000,-0.000000,,,,,
175,,,,,"{'description': 'Postal Code is not in the proper Format. 1', 'code': '005'}",,06-23-012-08W4,93895968907096.000000,-0.000000,,,,,
176,,,,,"{'description': 'Postal Code is not in the proper Format. 1', 'code': '005'}",,11-21-036-04W4,93895772473352.000000,-0.000000,,,,,
177,,,,,"{'description': 'Postal Code is not in the proper Format. 1', 'code': '005'}",,10-28-047-06W4,93895924314480.000000,-0.000000,,,,,
178,,,,,"{'description': 'Postal Code is not in the proper Format. 1', 'code': '005'}",,01-12-076-21W5,93895769998496.000000,-0.000000,,,,,
179,,,,,"{'description': 'Postal Code is not in the proper Format. 1', 'code': '005'}",,09-36-086-15W5,93895773533904.000000,-0.000000,,,,,
180,587,America/Edmonton,1,Wainwright,,LSD-09 SEC-15 TWP-043 RGE-04 MER-4,04-04-043-15W4,52.697898,-110.487952,T0B1K0,AB,Township Road 432 N/A,1,4201
181,,,,,"{'description': 'Postal Code is not in the proper Format. 1', 'code': '005'}",,10-16-038-01W4,93895858737176.000000,-0.000000,,,,,
182,,,,,"{'description': 'Postal Code is not in the proper Format. 1', 'code': '005'}",,06-24-054-23W4,93895817058528.000000,-0.000000,,,,,
183,,,,,"{'description': 'Postal Code is not in the proper Format. 1', 'code': '005'}",,14-08-077-11W6,93895858829152.000000,-0.000000,,,,,
184,,,,,"{'description': 'Postal Code is not in the proper Format. 1', 'code': '005'}",,05-11-013-15W4,93895892406304.000000,-0.000000,,,,,
185,,,,,"{'description': 'Postal Code is not in the proper Format. 1', 'code': '005'}",,07-20-014-01W4,93895832154408.000000,-0.000000,,,,,
186,,,,,"{'description': 'Postal Code is not in the proper Format. 1', 'code': '005'}",,09-34-014-18W4,93895875915552.000000,-0.000000,,,,,
187,,,1,Vulcan County,,LSD-09 SEC-16 TWP-018 RGE-19 MER-4,16-18-019-04W4,50.518176,-112.552188,T0L1G0,AB,Township Road 182,1,194001
188,,,,,"{'description': 'Postal Code is not in the proper Format. 1', 'code': '005'}",,09-34-036-20W4,93895775773664.000000,-0.000000,,,,,
189,,,1,Stettler,,LSD-09 SEC-20 TWP-037 RGE-18 MER-4,04-18-037-20W4,52.201179,-112.528891,T0C2G0,AB,850 HWY,1,37402
190,,,,,"{'description': 'Postal Code is not in the proper Format. 1', 'code': '005'}",,15-35-064-04W4,93895835280768.000000,-0.000000,,,,,
191,,,,,"{'description': 'Postal Code is not in the proper Format. 1', 'code': '005'}",,12-28-069-10W6,93895949852448.000000,-0.000000,,,,,
192,,,,,"{'description': 'Postal Code is not in the proper Format. 1', 'code': '005'}",,12-27-089-03W5,93895808613024.000000,-0.000000,,,,,
193,,,,,"{'description': 'Postal Code is not in the proper Format. 1', 'code': '005'}",,07-09-050-06W5,93895875580448.000000,-0.000000,,,,,
194,587,America/Edmonton,1,Taber,,LSD-09 SEC-16 TWP-009 RGE-15 MER-4,04-15-009-16W4,49.728129,-111.968866,T1G2C6,AB,Township Road 92 N/A,1,15301
195,,,,,"{'description': 'Postal Code is not in the proper Format. 1', 'code': '005'}",,08-17-019-16W4,93895793055216.000000,-0.000000,,,,,
196,,,,,"{'description': 'Postal Code is not in the proper Format. 1', 'code': '005'}",,12-31-021-25W4,93895784478120.000000,-0.000000,,,,,
197,,,,,"{'description': 'Postal Code is not in the proper Format. 1', 'code': '005'}",,15-06-039-20W4,93895890227608.000000,-0.000000,,,,,
198,,,,,"{'description': 'Postal Code is not in the proper Format. 1', 'code': '005'}",,03-05-049-08W5,93895808442992.000000,-0.000000,,,,,
199,,,,,"{'description': 'Postal Code is not in the proper Format. 1', 'code': '005'}",,13-27-054-22W5,93895947175256.000000,-0.000000,,,,,
200,587,America/Edmonton,,Greenview,,LSD-09 SEC-21 TWP-062 RGE-22 MER-5,05-22-062-21W5,54.477581,-116.965171,T0H1P0,AB,43 HWY,,0
201,,,,,"{'description': 'Postal Code is not in the proper Format. 1', 'code': '005'}",,10-28-105-05W6,93895808321768.000000,-0.000000,,,,,
202,,,,,"{'description': 'Postal Code is not in the proper Format. 1', 'code': '005'}",,06-16-075-09W6,93895878759512.000000,-0.000000,,,,,
203,587,America/Edmonton,1,Fairview No. 136,,LSD-09 SEC-10 TWP-082 RGE-05 MER-6,06-05-082-10W6,56.108952,-118.679111,T0H2A0,AB,Range Road 52,1,82217
204,,,,,"{'description': 'Postal Code is not in the proper Format. 1', 'code': '005'}",,01-23-011-17W4,93895871369408.000000,-0.000000,,,,,
205,,,,,"{'description': 'Postal Code is not in the proper Format. 1', 'code': '005'}",,12-21-018-15W4,93895937380048.000000,-0.000000,,,,,
206,,,,,"{'description': 'Postal Code is not in the proper Format. 1', 'code': '005'}",,16-15-039-02W4,93895813539608.000000,-0.000000,,,,,
207,,,,,"{'description': 'Postal Code is not in the proper Format. 1', 'code': '005'}",,09-20-064-05W6,93895881393704.000000,-0.000000,,,,,
208,,,,,"{'description': 'Postal Code is not in the proper Format. 1', 'code': '005'}",,08-12-007-29W4,93895813349752.000000,-0.000000,,,,,
209,,,,,"{'description': 'Postal Code is not in the proper Format. 1', 'code': '005'}",,16-09-012-16W4,93895930925912.000000,-0.000000,,,,,
210,,,,,"{'description': 'Postal Code is not in the proper Format. 1', 'code': '005'}",,06-22-015-12W4,93895859838520.000000,-0.000000,,,,,
211,,,,,"{'description': 'Postal Code is not in the proper Format. 1', 'code': '005'}",,16-29-050-04W5,93895770695776.000000,-0.000000,,,,,
212,,,,,"{'description': 'Postal Code is not in the proper Format. 1', 'code': '005'}",,06-34-049-03W5,93895813432216.000000,-0.000000,,,,,
213,,,,,"{'description': 'Postal Code is not in the proper Format. 1', 'code': '005'}",,15-24-059-21W5,93895903787512.000000,-0.000000,,,,,
214,,,,,"{'description': 'Postal Code is not in the proper Format. 1', 'code': '005'}",,02-31-071-25W4,93895940982120.000000,-0.000000,,,,,
215,,,,,"{'description': 'Postal Code is not in the proper Format. 1', 'code': '005'}",,11-18-075-08W6,93895894193168.000000,-0.000000,,,,,
216,,,,,"{'description': 'Postal Code is not in the proper Format. 1', 'code': '005'}",,16-10-088-10W6,93895782488608.000000,-0.000000,,,,,
217,,,,,"{'description': 'Postal Code is not in the proper Format. 1', 'code': '005'}",,14-32-006-16W4,93895848460992.000000,-0.000000,,,,,
218,,,,,"{'description': 'Postal Code is not in the proper Format. 1', 'code': '005'}",,13-12-040-22W4,93895824436840.000000,-0.000000,,,,,
219,,,,,"{'description': 'Postal Code is not in the proper Format. 1', 'code': '005'}",,13-16-045-25W4,93895900696840.000000,-0.000000,,,,,
220,,,,,"{'description': 'Postal Code is not in the proper Format. 1', 'code': '005'}",,11-20-049-04W5,93895772507672.000000,-0.000000,,,,,
221,,,,,"{'description': 'Postal Code is not in the proper Format. 1', 'code': '005'}",,10-20-047-07W5,93895794548280.000000,-0.000000,,,,,
222,,,,,"{'description': 'Postal Code is not in the proper Format. 1', 'code': '005'}",,02-05-053-23W4,93895793266648.000000,-0.000000,,,,,
223,,,,,"{'description': 'Postal Code is not in the proper Format. 1', 'code': '005'}",,15-36-080-22W4,93895994928248.000000,-0.000000,,,,,
224,587,America/Edmonton,1,Yellowhead,,LSD-09 SEC-06 TWP-055 RGE-13 MER-5,05-13-055-06W4,53.727356,-115.925260,T7E3Y1,AB,Range Road 135A N/A,1,55050
225,,,,,"{'description': 'Postal Code is not in the proper Format. 1', 'code': '005'}",,16-23-017-01W4,93895830873312.000000,-0.000000,,,,,
226,,,,,"{'description': 'Postal Code is not in the proper Format. 1', 'code': '005'}",,10-29-017-20W4,93895992893520.000000,-0.000000,,,,,
227,,,,,"{'description': 'Postal Code is not in the proper Format. 1', 'code': '005'}",,10-29-017-20W4,93895992893520.000000,-0.000000,,,,,
228,,,,,"{'description': 'Postal Code is not in the proper Format. 1', 'code': '005'}",,10-29-017-20W4,93895992893520.000000,-0.000000,,,,,
229,,,,,"{'description': 'Postal Code is not in the proper Format. 1', 'code': '005'}",,10-29-017-20W4,93895992893520.000000,-0.000000,,,,,
230,,,,,"{'description': 'Postal Code is not in the proper Format. 1', 'code': '005'}",,10-29-017-20W4,93895992893520.000000,-0.000000,,,,,
231,,,,,"{'description': 'Postal Code is not in the proper Format. 1', 'code': '005'}",,10-29-017-20W4,93895992893520.000000,-0.000000,,,,,
232,,,,,"{'description': 'Postal Code is not in the proper Format. 1', 'code': '005'}",,10-21-083-19W4,93895866171144.000000,-0.000000,,,,,
233,,,,,"{'description': 'Postal Code is not in the proper Format. 1', 'code': '005'}",,11-21-046-26W4,93895905153880.000000,-0.000000,,,,,
234,,,,,"{'description': 'Postal Code is not in the proper Format. 1', 'code': '005'}",,14-22-047-25W4,93895816037144.000000,-0.000000,,,,,
235,,,,,"{'description': 'Postal Code is not in the proper Format. 1', 'code': '005'}",,07-20-021-05W4,93895800188896.000000,-0.000000,,,,,
236,,,,,"{'description': 'Postal Code is not in the proper Format. 1', 'code': '005'}",,04-36-040-11W4,93895808512368.000000,-0.000000,,,,,
237,,,,,"{'description': 'Postal Code is not in the proper Format. 1', 'code': '005'}",,02-06-046-06W4,93895789659016.000000,-0.000000,,,,,
238,,,,,"{'description': 'Postal Code is not in the proper Format. 1', 'code': '005'}",,10-18-077-08W4,93895791422496.000000,-0.000000,,,,,
239,,,,,"{'description': 'Postal Code is not in the proper Format. 1', 'code': '005'}",,08-34-032-03W5,93895777233368.000000,-0.000000,,,,,
240,587,America/Edmonton,1,Yellowhead County,,LSD-09 SEC-24 TWP-055 RGE-13 MER-5,05-13-055-24W4,53.799098,-115.784267,T7E3J3,AB,Township Road 555A,1,12769
241,,,,,"{'description': 'Postal Code is not in the proper Format. 1', 'code': '005'}",,16-33-030-01W5,93895900672336.000000,-0.000000,,,,,
242,,,,,"{'description': 'Postal Code is not in the proper Format. 1', 'code': '005'}",,04-30-032-10W4,93895882022016.000000,-0.000000,,,,,
243,"403,587",America/Edmonton,1,Special Area No. 4,,LSD-09 SEC-02 TWP-032 RGE-01 MER-4,04-01-032-02W5,51.721449,-110.028552,T0J1H0,AB,Range Road 11,1,32113
244,,,,,"{'description': 'Postal Code is not in the proper Format. 1', 'code': '005'}",,15-20-041-12W4,93895812464112.000000,-0.000000,,,,,
245,,,,,"{'description': 'Postal Code is not in the proper Format. 1', 'code': '005'}",,10-04-067-18W5,93895925479440.000000,-0.000000,,,,,
246,,,,,"{'description': 'Postal Code is not in the proper Format. 1', 'code': '005'}",,10-31-056-08W5,93895783199880.000000,-0.000000,,,,,
247,,,,,"{'description': 'Postal Code is not in the proper Format. 1', 'code': '005'}",,10-22-070-20W5,93895903504672.000000,-0.000000,,,,,
248,,,,,"{'description': 'Postal Code is not in the proper Format. 1', 'code': '005'}",,12-10-020-22W4,93895820224664.000000,-0.000000,,,,,
249,,,,,"{'description': 'Postal Code is not in the proper Format. 1', 'code': '005'}",,12-07-058-10W5,93895883545208.000000,-0.000000,,,,,
250,,,,,"{'description': 'Postal Code is not in the proper Format. 1', 'code': '005'}",,06-18-063-10W5,93895995797216.000000,-0.000000,,,,,
251,,,,,"{'description': 'Postal Code is not in the proper Format. 1', 'code': '005'}",,09-31-074-09W6,93895930770424.000000,-0.000000,,,,,
252,,,,,"{'description': 'Postal Code is not in the proper Format. 1', 'code': '005'}",,11-09-085-15W5,93895867264816.000000,-0.000000,,,,,
253,,,,,"{'description': 'Postal Code is not in the proper Format. 1', 'code': '005'}",,13-27-038-01W5,93895739235352.000000,-0.000000,,,,,
254,,,,,"{'description': 'Postal Code is not in the proper Format. 1', 'code': '005'}",,15-35-010-18W4,93895833500592.000000,-0.000000,,,,,
255,780,America/Edmonton,1,Brazeau County,,LSD-09 SEC-11 TWP-050 RGE-12 MER-5,05-12-050-11W5,53.320761,-115.610847,T0E0K0,AB,RANGE ROAD 120,1,1
256,,,,,"{'description': 'Postal Code is not in the proper Format. 1', 'code': '005'}",,10-21-051-12W5,93895795973184.000000,-0.000000,,,,,
257,,,,,"{'description': 'Postal Code is not in the proper Format. 1', 'code': '005'}",,13-34-082-21W4,93895774669592.000000,-0.000000,,,,,
258,587,America/Edmonton,,Opportunity,,LSD-09 SEC-11 TWP-082 RGE-04 MER-5,05-04-082-11W6,55.831589,-114.159492,T0G2W0,AB,754 HWY,,0
259,,,,,"{'description': 'Postal Code is not in the proper Format. 1', 'code': '005'}",,16-26-106-06W6,93895962750000.000000,-0.000000,,,,,
260,"403,587",America/Edmonton,1,Stettler,,LSD-09 SEC-04 TWP-035 RGE-18 MER-4,04-18-035-04W5,51.969342,-112.529446,T0J0L0,AB,589 HWY,1,18427
261,,,,,"{'description': 'Postal Code is not in the proper Format. 1', 'code': '005'}",,06-13-044-04W5,93895943442832.000000,-0.000000,,,,,
262,,,,,"{'description': 'Postal Code is not in the proper Format. 1', 'code': '005'}",,06-35-027-23W4,93895887911480.000000,-0.000000,,,,,
263,,,,,"{'description': 'Postal Code is not in the proper Format. 1', 'code': '005'}",,16-20-052-07W4,93895791386856.000000,-0.000000,,,,,
264,,,,,"{'description': 'Postal Code is not in the proper Format. 1', 'code': '005'}",,11-06-056-04W4,93895813013560.000000,-0.000000,,,,,
265,780,America/Edmonton,1,Smoky Lake County,,LSD-09 SEC-11 TWP-063 RGE-17 MER-4,04-17-063-11W5,54.441893,-112.469520,T0A4W0,AB,855 HWY,1,62823
266,,,,,"{'description': 'Postal Code is not in the proper Format. 1', 'code': '005'}",,06-31-069-21W5,93895797467552.000000,-0.000000,,,,,
267,,,,,"{'description': 'Postal Code is not in the proper Format. 1', 'code': '005'}",,12-05-074-05W5,93895918056992.000000,-0.000000,,,,,
268,,,,,"{'description': 'Postal Code is not in the proper Format. 1', 'code': '005'}",,03-05-039-05W5,93895896654248.000000,-0.000000,,,,,
269,,,,,"{'description': 'Postal Code is not in the proper Format. 1', 'code': '005'}",,11-03-042-23W4,93895876926040.000000,-0.000000,,,,,
270,,,,,"{'description': 'Postal Code is not in the proper Format. 1', 'code': '005'}",,11-03-060-01W6,93895878675096.000000,-0.000000,,,,,
271,,,,,"{'description': 'Postal Code is not in the proper Format. 1', 'code': '005'}",,07-08-065-17W4,93895851192688.000000,-0.000000,,,,,
272,,,,,"{'description': 'Postal Code is not in the proper Format. 1', 'code': '005'}",,07-20-073-18W5,93895983728496.000000,-0.000000,,,,,
273,,,,,"{'description': 'Postal Code is not in the proper Format. 1', 'code': '005'}",,10-21-090-19W4,93895882407672.000000,-0.000000,,,,,
274,,,,,"{'description': 'Postal Code is not in the proper Format. 1', 'code': '005'}",,01-18-119-07W6,93895786724752.000000,-0.000000,,,,,
275,,,,,"{'description': 'Postal Code is not in the proper Format. 1', 'code': '005'}",,05-22-032-05W5,93895781453096.000000,-0.000000,,,,,
276,,,,,"{'description': 'Postal Code is not in the proper Format. 1', 'code': '005'}",,SW-28-046-13W5,93895949411120.000000,-0.000000,,,,,
277,,,,,"{'description': 'Postal Code is not in the proper Format. 1', 'code': '005'}",,13-30-067-14W4,93895890979104.000000,-0.000000,,,,,
278,,,,,"{'description': 'Postal Code is not in the proper Format. 1', 'code': '005'}",,02-32-069-10W6,93895830803288.000000,-0.000000,,,,,
279,,,,,"{'description': 'Postal Code is not in the proper Format. 1', 'code': '005'}",,07-19-047-04W4,93895898055376.000000,-0.000000,,,,,
280,,,,,"{'description': 'Postal Code is not in the proper Format. 1', 'code': '005'}",,14-01-047-04W5,93895836551560.000000,-0.000000,,,,,
281,,,,,"{'description': 'Postal Code is not in the proper Format. 1', 'code': '005'}",,12-02-050-01W4,93895879856448.000000,-0.000000,,,,,
282,,,,,"{'description': 'Postal Code is not in the proper Format. 1', 'code': '005'}",,14-30-052-05W5,93895816895240.000000,-0.000000,,,,,
283,,,,,"{'description': 'Postal Code is not in the proper Format. 1', 'code': '005'}",,09-21-053-25W4,93895802379392.000000,-0.000000,,,,,
284,,,,,"{'description': 'Postal Code is not in the proper Format. 1', 'code': '005'}",,02-02-084-14W5,93895803734112.000000,-0.000000,,,,,
285,,,,,"{'description': 'Postal Code is not in the proper Format. 1', 'code': '005'}",,02-02-084-14W5,93895803734112.000000,-0.000000,,,,,
286,,,,,"{'description': 'Postal Code is not in the proper Format. 1', 'code': '005'}",,13-32-023-25W4,93895971468552.000000,-0.000000,,,,,
287,,,,,"{'description': 'Postal Code is not in the proper Format. 1', 'code': '005'}",,13-33-006-26W4,93895944590792.000000,-0.000000,,,,,
288,,,,,"{'description': 'Postal Code is not in the proper Format. 1', 'code': '005'}",,01-01-039-03W4,93896006119720.000000,-0.000000,,,,,
289,,,,,"{'description': 'Postal Code is not in the proper Format. 1', 'code': '005'}",,13-18-057-08W5,93895793266912.000000,-0.000000,,,,,
290,,,,,"{'description': 'Postal Code is not in the proper Format. 1', 'code': '005'}",,09-10-074-11W6,93895911449096.000000,-0.000000,,,,,
291,,,,,"{'description': 'Postal Code is not in the proper Format. 1', 'code': '005'}",,08-36-042-28W4,93895938214232.000000,-0.000000,,,,,
292,,,,,"{'description': 'Postal Code is not in the proper Format. 1', 'code': '005'}",,13-29-070-12W6,93895789125968.000000,-0.000000,,,,,
293,,,,,"{'description': 'Postal Code is not in the proper Format. 1', 'code': '005'}",,10-33-041-12W4,93895945124072.000000,-0.000000,,,,,
294,,,,,"{'description': 'Postal Code is not in the proper Format. 1', 'code': '005'}",,15-34-048-16W5,93895772489576.000000,-0.000000,,,,,
295,,,,,"{'description': 'Postal Code is not in the proper Format. 1', 'code': '005'}",,06-17-062-04W4,93895792102024.000000,-0.000000,,,,,
296,,,,,"{'description': 'Postal Code is not in the proper Format. 1', 'code': '005'}",,12-14-076-06W4,93895775574808.000000,-0.000000,,,,,
297,,,,,"{'description': 'Postal Code is not in the proper Format. 1', 'code': '005'}",,09-24-024-26W4,93895830682208.000000,-0.000000,,,,,
298,,,,,"{'description': 'Postal Code is not in the proper Format. 1', 'code': '005'}",,08-24-011-07W4,93895905451136.000000,-0.000000,,,,,
299,,,,,"{'description': 'Postal Code is not in the proper Format. 1', 'code': '005'}",,01-29-041-01W4,93895830725376.000000,-0.000000,,,,,
300,,,,,"{'description': 'Postal Code is not in the proper Format. 1', 'code': '005'}",,08-28-055-12W4,93895895547864.000000,-0.000000,,,,,
301,587,America/Edmonton,1,Thorhild County,,LSD-09 SEC-20 TWP-062 RGE-19 MER-4,04-19-062-20W5,54.377992,-112.825868,T0A1B0,AB,Range Road 195,1,62215
302,,,,,"{'description': 'Postal Code is not in the proper Format. 1', 'code': '005'}",,02-17-039-04W5,93895812835440.000000,-0.000000,,,,,
303,,,,,"{'description': 'Postal Code is not in the proper Format. 1', 'code': '005'}",,11-10-056-23W4,93895811055296.000000,-0.000000,,,,,
304,,,,,"{'description': 'Postal Code is not in the proper Format. 1', 'code': '005'}",,03-14-036-05W4,93895826078608.000000,-0.000000,,,,,
305,,,,,"{'description': 'Postal Code is not in the proper Format. 1', 'code': '005'}",,10-08-068-10W5,93895786784184.000000,-0.000000,,,,,
306,587,America/Edmonton,,Opportunity,,LSD-09 SEC-01 TWP-078 RGE-20 MER-4,04-20-078-01W6,55.712309,-113.359757,T0G0T0,AB,813 HWY,,0
307,,,,,"{'description': 'Postal Code is not in the proper Format. 1', 'code': '005'}",,16-11-001-20W4,93895812527848.000000,-0.000000,,,,,
308,,,,,"{'description': 'Postal Code is not in the proper Format. 1', 'code': '005'}",,06-01-013-13W4,93895886699640.000000,-0.000000,,,,,
309,,,,,"{'description': 'Postal Code is not in the proper Format. 1', 'code': '005'}",,14-02-020-08W4,93895768051696.000000,-0.000000,,,,,
310,,,,,"{'description': 'Postal Code is not in the proper Format. 1', 'code': '005'}",,11-15-041-12W4,93895779986088.000000,-0.000000,,,,,
311,,,,,"{'description': 'Postal Code is not in the proper Format. 1', 'code': '005'}",,14-20-052-25W4,93895842472512.000000,-0.000000,,,,,
312,,,,,"{'description': 'Postal Code is not in the proper Format. 1', 'code': '005'}",,11-30-071-16W4,93895886139944.000000,-0.000000,,,,,
313,,,,,"{'description': 'Postal Code is not in the proper Format. 1', 'code': '005'}",,07-10-042-22W4,93895814518040.000000,-0.000000,,,,,
314,,,,,"{'description': 'Postal Code is not in the proper Format. 1', 'code': '005'}",,16-18-049-08W5,93895808199008.000000,-0.000000,,,,,
315,,,,,"{'description': 'Postal Code is not in the proper Format. 1', 'code': '005'}",,12-01-050-07W5,93895959839776.000000,-0.000000,,,,,
316,,,,,"{'description': 'Postal Code is not in the proper Format. 1', 'code': '005'}",,12-03-070-10W5,93895823644232.000000,-0.000000,,,,,
317,,,,,"{'description': 'Postal Code is not in the proper Format. 1', 'code': '005'}",,01-20-090-03W5,93895911106864.000000,-0.000000,,,,,
318,,,,,"{'description': 'Postal Code is not in the proper Format. 1', 'code': '005'}",,14-07-036-27W4,93895911570328.000000,-0.000000,,,,,
319,,,,,"{'description': 'Postal Code is not in the proper Format. 1', 'code': '005'}",,13-26-061-03W5,93895830758416.000000,-0.000000,,,,,
320,,,,,"{'description': 'Postal Code is not in the proper Format. 1', 'code': '005'}",,08-31-044-04W4,93895996270928.000000,-0.000000,,,,,
321,,,,,"{'description': 'Postal Code is not in the proper Format. 1', 'code': '005'}",,05-34-050-26W4,93895830850608.000000,-0.000000,,,,,
322,,,,,"{'description': 'Postal Code is not in the proper Format. 1', 'code': '005'}",,NW-21-043-01W5,93895839594512.000000,-0.000000,,,,,
323,,,,,"{'description': 'Postal Code is not in the proper Format. 1', 'code': '005'}",,14-31-017-08W4,93895775327904.000000,-0.000000,,,,,
324,,,,,"{'description': 'Postal Code is not in the proper Format. 1', 'code': '005'}",,07-25-042-03W4,93895841607920.000000,-0.000000,,,,,
325,,,,,"{'description': 'Postal Code is not in the proper Format. 1', 'code': '005'}",,08-03-050-08W5,93895977115360.000000,-0.000000,,,,,
326,,,,,"{'description': 'Postal Code is not in the proper Format. 1', 'code': '005'}",,07-06-055-23W5,93895869610592.000000,-0.000000,,,,,
327,,,,,"{'description': 'Postal Code is not in the proper Format. 1', 'code': '005'}",,09-25-059-21W5,93895991426696.000000,-0.000000,,,,,
328,,,,,"{'description': 'Postal Code is not in the proper Format. 1', 'code': '005'}",,10-02-077-05W5,93895813162704.000000,-0.000000,,,,,
329,,,,,"{'description': 'Postal Code is not in the proper Format. 1', 'code': '005'}",,08-20-045-02W5,93895780859344.000000,-0.000000,,,,,
330,,,,,"{'description': 'Postal Code is not in the proper Format. 1', 'code': '005'}",,08-24-049-05W5,93895957692344.000000,-0.000000,,,,,
331,,,,,"{'description': 'Postal Code is not in the proper Format. 1', 'code': '005'}",,15-10-033-05W5,93895991827184.000000,-0.000000,,,,,
332,,,1,Yellowhead County,,LSD-09 SEC-08 TWP-049 RGE-24 MER-5,05-24-049-08W5,53.226743,-117.469172,T0E0R0,AB,Township Road 492A,1,24369
333,,,,,"{'description': 'Postal Code is not in the proper Format. 1', 'code': '005'}",,13-36-064-13W5,93895857575824.000000,-0.000000,,,,,
334,,,,,"{'description': 'Postal Code is not in the proper Format. 1', 'code': '005'}",,09-01-068-06W6,93895771198224.000000,-0.000000,,,,,
335,,,,,"{'description': 'Postal Code is not in the proper Format. 1', 'code': '005'}",,06-14-075-13W4,93895830679496.000000,-0.000000,,,,,
336,,,,,"{'description': 'Postal Code is not in the proper Format. 1', 'code': '005'}",,07-36-114-08W6,93895904940256.000000,-0.000000,,,,,
337,,,,,"{'description': 'Postal Code is not in the proper Format. 1', 'code': '005'}",,10-01-011-18W4,93895783203544.000000,-0.000000,,,,,
338,,,,,"{'description': 'Postal Code is not in the proper Format. 1', 'code': '005'}",,12-29-026-16W4,93895896235832.000000,-0.000000,,,,,
339,,,1,Yellowhead,,LSD-09 SEC-28 TWP-046 RGE-25 MER-5,05-25-046-28W4,53.098492,-117.468228,T0E0R0,AB,Range Road 244A N/A,1,47520
340,,,,,"{'description': 'Postal Code is not in the proper Format. 1', 'code': '005'}",,08-23-048-03W5,93895976998400.000000,-0.000000,,,,,
341,,,,,"{'description': 'Postal Code is not in the proper Format. 1', 'code': '005'}",,02-17-064-18W5,93895973307472.000000,-0.000000,,,,,
342,,,,,"{'description': 'Postal Code is not in the proper Format. 1', 'code': '005'}",,NE-23-020-27W4,93895866603040.000000,-0.000000,,,,,
343,,,,,"{'description': 'Postal Code is not in the proper Format. 1', 'code': '005'}",,11-21-023-29W4,93895877691976.000000,-0.000000,,,,,
344,,,,,"{'description': 'Postal Code is not in the proper Format. 1', 'code': '005'}",,08-04-028-22W4,93895981316728.000000,-0.000000,,,,,
345,"780,587",America/Edmonton,,Opportunity No. 17,,LSD-09 SEC-24 TWP-086 RGE-06 MER-5,05-06-086-24W4,56.493680,-114.556758,T0G2N0,AB,686 HWY,,86501
346,,,,,"{'description': 'Postal Code is not in the proper Format. 1', 'code': '005'}",,13-03-048-10W5,93895773324184.000000,-0.000000,,,,,
347,,,,,"{'description': 'Postal Code is not in the proper Format. 1', 'code': '005'}",,11-05-079-08W5,93895787534344.000000,-0.000000,,,,,
348,,,,,"{'description': 'Postal Code is not in the proper Format. 1', 'code': '005'}",,15-33-050-26W4,93895779820440.000000,-0.000000,,,,,
349,,,,,"{'description': 'Postal Code is not in the proper Format. 1', 'code': '005'}",,08-31-064-03W4,93895952988136.000000,-0.000000,,,,,
350,403,America/Edmonton,1,Clearwater,,LSD-09 SEC-22 TWP-041 RGE-04 MER-5,05-04-041-22W4,52.538521,-114.481202,T0M1H0,AB,Range Road 42 N/A,1,41226
351,,,,,"{'description': 'Postal Code is not in the proper Format. 1', 'code': '005'}",,16-12-062-02W4,93895914482560.000000,-0.000000,,,,,
352,,,,,"{'description': 'Postal Code is not in the proper Format. 1', 'code': '005'}",,14-12-015-03W4,93895886582848.000000,-0.000000,,,,,
353,,,,,"{'description': 'Postal Code is not in the proper Format. 1', 'code': '005'}",,14-24-037-24W4,93895997053040.000000,-0.000000,,,,,
354,,,1,Mount Robson,,LSD-09 SEC-04 TWP-047 RGE-08 MER-6,06-08-047-04W5,52.996027,-119.018202,V0E2Z0,BC,Yellowhead HWY,1,2
355,,,,,"{'description': 'Postal Code is not in the proper Format. 1', 'code': '005'}",,15-30-048-07W5,93895896710240.000000,-0.000000,,,,,
356,,,,,"{'description': 'Postal Code is not in the proper Format. 1', 'code': '005'}",,08-07-050-07W5,93895815137600.000000,-0.000000,,,,,
357,,,,,"{'description': 'Postal Code is not in the proper Format. 1', 'code': '005'}",,16-33-055-04W4,93895985912280.000000,-0.000000,,,,,
358,,,,,"{'description': 'Postal Code is not in the proper Format. 1', 'code': '005'}",,11-05-093-25W5,93895872513784.000000,-0.000000,,,,,
359,,,,,"{'description': 'Postal Code is not in the proper Format. 1', 'code': '005'}",,08-21-039-03W5,93895889512128.000000,-0.000000,,,,,
360,,,,,"{'description': 'Postal Code is not in the proper Format. 1', 'code': '005'}",,13-16-041-01W4,93895974864224.000000,-0.000000,,,,,
361,,,,,"{'description': 'Postal Code is not in the proper Format. 1', 'code': '005'}",,10-11-007-17W4,93895792355384.000000,-0.000000,,,,,
362,,,,,"{'description': 'Postal Code is not in the proper Format. 1', 'code': '005'}",,08-21-017-06W4,93895934814192.000000,-0.000000,,,,,
363,,,,,"{'description': 'Postal Code is not in the proper Format. 1', 'code': '005'}",,14-02-017-22W4,93895935693968.000000,-0.000000,,,,,
364,,,,,"{'description': 'Postal Code is not in the proper Format. 1', 'code': '005'}",,02-05-035-05W5,93895784882824.000000,-0.000000,,,,,
365,,,,,"{'description': 'Postal Code is not in the proper Format. 1', 'code': '005'}",,07-04-057-21W4,93895970372872.000000,-0.000000,,,,,
366,,,,,"{'description': 'Postal Code is not in the proper Format. 1', 'code': '005'}",,12-24-062-05W6,93895802813520.000000,-0.000000,,,,,
367,,,,,"{'description': 'Postal Code is not in the proper Format. 1', 'code': '005'}",,12-11-064-11W5,93895817743712.000000,-0.000000,,,,,
368,,,,,"{'description': 'Postal Code is not in the proper Format. 1', 'code': '005'}",,07-12-083-20W4,93895974709104.000000,-0.000000,,,,,
369,,,,,"{'description': 'Postal Code is not in the proper Format. 1', 'code': '005'}",,08-03-084-01W5,93895953171104.000000,-0.000000,,,,,
370,,,,,"{'description': 'Postal Code is not in the proper Format. 1', 'code': '005'}",,02-20-096-11W4,93895923754856.000000,-0.000000,,,,,
371,,,,,"{'description': 'Postal Code is not in the proper Format. 1', 'code': '005'}",,12-25-049-08W5,93895806113928.000000,-0.000000,,,,,
372,,,,,"{'description': 'Postal Code is not in the proper Format. 1', 'code': '005'}",,13-02-020-03W5,93895923318472.000000,-0.000000,,,,,
373,,,,,"{'description': 'Postal Code is not in the proper Format. 1', 'code': '005'}",,15-24-051-05W4,93895771136176.000000,-0.000000,,,,,
374,,,,,"{'description': 'Postal Code is not in the proper Format. 1', 'code': '005'}",,12-07-043-01W4,93895917434952.000000,-0.000000,,,,,
375,,,,,"{'description': 'Postal Code is not in the proper Format. 1', 'code': '005'}",,02-24-052-26W4,93895880399816.000000,-0.000000,,,,,
376,,,,,"{'description': 'Postal Code is not in the proper Format. 1', 'code': '005'}",,06-19-077-09W6,93895781646672.000000,-0.000000,,,,,
377,,,,,"{'description': 'Postal Code is not in the proper Format. 1', 'code': '005'}",,02-24-015-22W4,93895830735976.000000,-0.000000,,,,,
378,,,1,Cypress,,LSD-09 SEC-02 TWP-019 RGE-09 MER-4,04-09-019-02W5,50.601831,-111.136087,T0J0E0,AB,Township Road 192 N/A,1,9101
379,,,,,"{'description': 'Postal Code is not in the proper Format. 1', 'code': '005'}",,06-21-049-06W5,93895864241176.000000,-0.000000,,,,,
380,,,,,"{'description': 'Postal Code is not in the proper Format. 1', 'code': '005'}",,07-22-064-19W5,93895797528272.000000,-0.000000,,,,,
381,,,,,"{'description': 'Postal Code is not in the proper Format. 1', 'code': '005'}",,10-30-096-10W4,93895883616352.000000,-0.000000,,,,,
382,,,,,"{'description': 'Postal Code is not in the proper Format. 1', 'code': '005'}",,12-23-044-10W5,93895995728904.000000,-0.000000,,,,,
383,,,,,"{'description': 'Postal Code is not in the proper Format. 1', 'code': '005'}",,01-35-052-26W4,93895776536656.000000,-0.000000,,,,,
384,,,,,"{'description': 'Postal Code is not in the proper Format. 1', 'code': '005'}",,12-16-037-04W4,93895835233304.000000,-0.000000,,,,,
385,,,,,"{'description': 'Postal Code is not in the proper Format. 1', 'code': '005'}",,06-12-038-03W4,93895781688200.000000,-0.000000,,,,,
386,,,,,"{'description': 'Postal Code is not in the proper Format. 1', 'code': '005'}",,07-16-048-08W5,93895945848536.000000,-0.000000,,,,,
387,,,1,Vermilion River County,,LSD-09 SEC-01 TWP-050 RGE-04 MER-4,04-04-050-01W4,53.283739,-110.444182,T0B2P0,AB,Range Road 40,1,50017
388,,,,,"{'description': 'Postal Code is not in the proper Format. 1', 'code': '005'}",,09-16-052-26W4,93895878981952.000000,-0.000000,,,,,
389,,,,,"{'description': 'Postal Code is not in the proper Format. 1', 'code': '005'}",,08-20-055-04W4,93895780560552.000000,-0.000000,,,,,
390,,,,,"{'description': 'Postal Code is not in the proper Format. 1', 'code': '005'}",,11-18-056-05W4,93895771419200.000000,-0.000000,,,,,
391,,,,,"{'description': 'Postal Code is not in the proper Format. 1', 'code': '005'}",,15-25-051-03W4,93895814860792.000000,-0.000000,,,,,
392,,,,,"{'description': 'Postal Code is not in the proper Format. 1', 'code': '005'}",,16-15-037-03W5,93895821886016.000000,-0.000000,,,,,
393,,,,,"{'description': 'Postal Code is not in the proper Format. 1', 'code': '005'}",,14-34-040-03W5,93895906415168.000000,-0.000000,,,,,
394,,,,,"{'description': 'Postal Code is not in the proper Format. 1', 'code': '005'}",,08-21-041-04W5,93895953048320.000000,-0.000000,,,,,
395,,,,,"{'description': 'Postal Code is not in the proper Format. 1', 'code': '005'}",,13-04-052-15W5,93895847323544.000000,-0.000000,,,,,
396,,,,,"{'description': 'Postal Code is not in the proper Format. 1', 'code': '005'}",,07-22-055-02W4,93895805877296.000000,-0.000000,,,,,
397,,,,,"{'description': 'Postal Code is not in the proper Format. 1', 'code': '005'}",,15-29-068-10W5,93895954616096.000000,-0.000000,,,,,
398,,,,,"{'description': 'Postal Code is not in the proper Format. 1', 'code': '005'}",,08-10-079-10W6,93895953173288.000000,-0.000000,,,,,
399,,,,,"{'description': 'Postal Code is not in the proper Format. 1', 'code': '005'}",,01-15-041-02W5,93895776514576.000000,-0.000000,,,,,
400,,,,,"{'description': 'Postal Code is not in the proper Format. 1', 'code': '005'}",,12-11-034-09W4,93895923996936.000000,-0.000000,,,,,
401,,,,,"{'description': 'Postal Code is not in the proper Format. 1', 'code': '005'}",,15-36-046-06W4,93895786499520.000000,-0.000000,,,,,
402,,,1,Provost,,LSD-09 SEC-03 TWP-040 RGE-03 MER-4,04-03-040-03W5,52.409366,-110.340921,T0B0B3,AB,Range Road 32,1,39949
403,,,,,"{'description': 'Postal Code is not in the proper Format. 1', 'code': '005'}",,10-21-075-03W6,93895773322576.000000,-0.000000,,,,,
404,,,,,"{'description': 'Postal Code is not in the proper Format. 1', 'code': '005'}",,03-31-038-16W4,93895897195320.000000,-0.000000,,,,,
405,,,,,"{'description': 'Postal Code is not in the proper Format. 1', 'code': '005'}",,11-18-043-01W5,93895842791088.000000,-0.000000,,,,,
406,,,,,"{'description': 'Postal Code is not in the proper Format. 1', 'code': '005'}",,03-24-045-04W4,93895781338760.000000,-0.000000,,,,,
407,,,,,"{'description': 'Postal Code is not in the proper Format. 1', 'code': '005'}",,11-15-047-06W4,93895988816880.000000,-0.000000,,,,,
408,"780,587",America/Edmonton,1,Yellowhead County,,LSD-09 SEC-07 TWP-049 RGE-20 MER-5,05-20-049-07W5,53.211909,-116.907819,T0E1X0,AB,Township Road 491A,1,20717
409,,,,,"{'description': 'Postal Code is not in the proper Format. 1', 'code': '005'}",,09-35-068-22W5,93895799331824.000000,-0.000000,,,,,
410,587,America/Edmonton,,Fox Lake,,LSD-09 SEC-10 TWP-108 RGE-04 MER-5,05-04-108-10W6,58.459893,-114.535584,T0H3X0,AB,Main RD,,270
411,,,,,"{'description': 'Postal Code is not in the proper Format. 1', 'code': '005'}",,02-18-059-04W5,93895836054368.000000,-0.000000,,,,,
412,,,,,"{'description': 'Postal Code is not in the proper Format. 1', 'code': '005'}",,07-19-040-03W5,93895823016776.000000,-0.000000,,,,,
413,,,,,"{'description': 'Postal Code is not in the proper Format. 1', 'code': '005'}",,12-09-048-07W5,93895821680944.000000,-0.000000,,,,,
414,,,,,"{'description': 'Postal Code is not in the proper Format. 1', 'code': '005'}",,02-23-067-10W5,93895983343960.000000,-0.000000,,,,,
415,,,,,"{'description': 'Postal Code is not in the proper Format. 1', 'code': '005'}",,04-27-077-13W4,93895894995752.000000,-0.000000,,,,,
416,,,1,Ponoka County,,LSD-09 SEC-14 TWP-042 RGE-23 MER-4,04-23-042-14W4,52.625562,-113.195636,T0B0Y0,AB,Range Road 231,1,42279
417,,,,,"{'description': 'Postal Code is not in the proper Format. 1', 'code': '005'}",,11-19-053-16W5,93895866710624.000000,-0.000000,,,,,
418,,,,,"{'description': 'Postal Code is not in the proper Format. 1', 'code': '005'}",,11-26-062-24W4,93895867739080.000000,-0.000000,,,,,
419,,,,,"{'description': 'Postal Code is not in the proper Format. 1', 'code': '005'}",,07-05-043-06W5,93895813370992.000000,-0.000000,,,,,
420,,,,,"{'description': 'Postal Code is not in the proper Format. 1', 'code': '005'}",,13-05-060-05W5,93895814424128.000000,-0.000000,,,,,
421,,,,,"{'description': 'Postal Code is not in the proper Format. 1', 'code': '005'}",,02-35-080-22W4,93895905153040.000000,-0.000000,,,,,
422,"780,587",America/Edmonton,1,Northern Sunrise County,,LSD-09 SEC-14 TWP-083 RGE-10 MER-5,05-10-083-14W5,56.133397,-115.335433,T0G0C0,AB,88 HWY,1,82907
423,,,,,"{'description': 'Postal Code is not in the proper Format. 1', 'code': '005'}",,07-30-021-16W4,93895977359584.000000,-0.000000,,,,,
424,,,,,"{'description': 'Postal Code is not in the proper Format. 1', 'code': '005'}",,06-30-042-07W5,93895822708016.000000,-0.000000,,,,,
425,,,,,"{'description': 'Postal Code is not in the proper Format. 1', 'code': '005'}",,10-22-047-07W5,93895952316032.000000,-0.000000,,,,,
426,"780,587",America/Edmonton,1,Minburn County No. 27,,LSD-09 SEC-26 TWP-051 RGE-09 MER-4,04-09-051-26W4,53.425272,-111.206264,T9X2W0,AB,Range Road 91,1,51401
427,"780,587",America/Edmonton,,Greenview,,LSD-09 SEC-12 TWP-068 RGE-05 MER-6,06-05-068-12W4,54.891300,-118.696852,T0H3H0,AB,Big Mountain Creek RD,,1
428,587,America/Edmonton,,Northern Admin District,,LSD-09 SEC-03 TWP-069 RGE-01 MER-4,04-01-069-03W6,54.746834,-109.706067,T9M1G9,SK,Edwards Lake RD,,1
429,,,,,"{'description': 'Postal Code is not in the proper Format. 1', 'code': '005'}",,01-29-070-11W5,93895777009936.000000,-0.000000,,,,,
430,,,1,Newell County,,LSD-09 SEC-13 TWP-016 RGE-15 MER-4,04-15-016-13W4,50.365816,-111.935122,T0J2Z0,AB,873 HWY,1,15079
431,,,,,"{'description': 'Postal Code is not in the proper Format. 1', 'code': '005'}",,08-05-050-16W5,93895789651872.000000,-0.000000,,,,,
432,,,,,"{'description': 'Postal Code is not in the proper Format. 1', 'code': '005'}",,02-22-071-06W6,93895902514160.000000,-0.000000,,,,,
433,,,,,"{'description': 'Postal Code is not in the proper Format. 1', 'code': '005'}",,12-06-021-14W4,93895831203456.000000,-0.000000,,,,,
434,,,,,"{'description': 'Postal Code is not in the proper Format. 1', 'code': '005'}",,04-32-031-12W4,93895844483376.000000,-0.000000,,,,,
435,,,,,"{'description': 'Postal Code is not in the proper Format. 1', 'code': '005'}",,14-19-038-05W5,93895789868256.000000,-0.000000,,,,,
436,,,,,"{'description': 'Postal Code is not in the proper Format. 1', 'code': '005'}",,01-15-051-02W5,93895876789720.000000,-0.000000,,,,,
437,,,,,"{'description': 'Postal Code is not in the proper Format. 1', 'code': '005'}",,14-28-055-21W5,93895833171432.000000,-0.000000,,,,,
438,,,,,"{'description': 'Postal Code is not in the proper Format. 1', 'code': '005'}",,15-34-078-22W5,93895867571928.000000,-0.000000,,,,,
439,,,,,"{'description': 'Postal Code is not in the proper Format. 1', 'code': '005'}",,11-05-105-24W5,93895847946328.000000,-0.000000,,,,,
440,,,,,"{'description': 'Postal Code is not in the proper Format. 1', 'code': '005'}",,10-31-042-23W4,93895898754848.000000,-0.000000,,,,,
441,"403,587",America/Edmonton,1,Kananaskis,,LSD-09 SEC-13 TWP-019 RGE-08 MER-5,05-08-019-13W4,50.604204,-114.996170,T0L1H6,AB,40 HWY,1,19331
442,,,,,"{'description': 'Postal Code is not in the proper Format. 1', 'code': '005'}",,06-11-020-03W5,93895899579464.000000,-0.000000,,,,,
443,,,,,"{'description': 'Postal Code is not in the proper Format. 1', 'code': '005'}",,02-11-055-05W4,93895800209920.000000,-0.000000,,,,,
444,,,,,"{'description': 'Postal Code is not in the proper Format. 1', 'code': '005'}",,14-22-074-24W4,93895954793592.000000,-0.000000,,,,,
445,,,,,"{'description': 'Postal Code is not in the proper Format. 1', 'code': '005'}",,07-06-046-01W5,93895781977560.000000,-0.000000,,,,,
446,,,,,"{'description': 'Postal Code is not in the proper Format. 1', 'code': '005'}",,04-28-065-14W4,93895961433384.000000,-0.000000,,,,,
447,,,,,"{'description': 'Postal Code is not in the proper Format. 1', 'code': '005'}",,12-04-039-04W5,93895831026128.000000,-0.000000,,,,,
448,,,,,"{'description': 'Postal Code is not in the proper Format. 1', 'code': '005'}",,12-01-045-06W4,93895998748840.000000,-0.000000,,,,,
449,,,,,"{'description': 'Postal Code is not in the proper Format. 1', 'code': '005'}",,11-27-055-05W4,93895775568464.000000,-0.000000,,,,,
450,,,,,"{'description': 'Postal Code is not in the proper Format. 1', 'code': '005'}",,11-18-087-25W5,93895892393280.000000,-0.000000,,,,,
451,,,,,"{'description': 'Postal Code is not in the proper Format. 1', 'code': '005'}",,12-04-042-22W4,93895962128784.000000,-0.000000,,,,,
452,,,,,"{'description': 'Postal Code is not in the proper Format. 1', 'code': '005'}",,11-17-020-28W4,93895887682216.000000,-0.000000,,,,,
453,,,,,"{'description': 'Postal Code is not in the proper Format. 1', 'code': '005'}",,07-25-044-01W4,93895841247648.000000,-0.000000,,,,,
454,,,,,"{'description': 'Postal Code is not in the proper Format. 1', 'code': '005'}",,09-29-051-04W4,93895794837384.000000,-0.000000,,,,,
455,,,,,"{'description': 'Postal Code is not in the proper Format. 1', 'code': '005'}",,01-13-053-06W5,93895803101736.000000,-0.000000,,,,,
456,,,,Yellowhead County,,LSD-09 SEC-19 TWP-053 RGE-05 MER-6,06-05-053-19W5,53.803022,-118.460141,T0E0M0,AB,Township Road 560A,,4011
457,,,,,"{'description': 'Postal Code is not in the proper Format. 1', 'code': '005'}",,07-03-025-20W4,93895816149136.000000,-0.000000,,,,,
458,,,,,"{'description': 'Postal Code is not in the proper Format. 1', 'code': '005'}",,02-03-042-06W5,93895812987344.000000,-0.000000,,,,,
459,"780,587",America/Edmonton,1,Yellowhead,,LSD-09 SEC-05 TWP-047 RGE-19 MER-5,05-19-047-05W5,53.022704,-116.739322,T0E1X0,AB,Township Road 470A N/A,1,19411
460,,,,,"{'description': 'Postal Code is not in the proper Format. 1', 'code': '005'}",,08-36-048-07W5,93895778129464.000000,-0.000000,,,,,
461,,,,,"{'description': 'Postal Code is not in the proper Format. 1', 'code': '005'}",,16-09-049-05W5,93895968687872.000000,-0.000000,,,,,
462,,,,,"{'description': 'Postal Code is not in the proper Format. 1', 'code': '005'}",,06-24-077-23W4,93895915886880.000000,-0.000000,,,,,
463,,,,,"{'description': 'Postal Code is not in the proper Format. 1', 'code': '005'}",,01-35-039-12W4,93895830723632.000000,-0.000000,,,,,
464,,,,,"{'description': 'Postal Code is not in the proper Format. 1', 'code': '005'}",,03-26-033-06W5,93895877644488.000000,-0.000000,,,,,
465,,,,,"{'description': 'Postal Code is not in the proper Format. 1', 'code': '005'}",,13-26-035-04W5,93895787303288.000000,-0.000000,,,,,
466,,,,,"{'description': 'Postal Code is not in the proper Format. 1', 'code': '005'}",,01-08-049-07W5,93895818610752.000000,-0.000000,,,,,
467,,,,,"{'description': 'Postal Code is not in the proper Format. 1', 'code': '005'}",,06-31-053-18W5,93895791454408.000000,-0.000000,,,,,
468,,,,,"{'description': 'Postal Code is not in the proper Format. 1', 'code': '005'}",,09-27-072-05W5,93895909214840.000000,-0.000000,,,,,
469,,,,,"{'description': 'Postal Code is not in the proper Format. 1', 'code': '005'}",,01-22-056-06W5,93895920361680.000000,-0.000000,,,,,
470,,,,,"{'description': 'Postal Code is not in the proper Format. 1', 'code': '005'}",,03-03-087-09W5,93895917181912.000000,-0.000000,,,,,
471,,,,,"{'description': 'Postal Code is not in the proper Format. 1', 'code': '005'}",,09-06-031-04W5,93895888657080.000000,-0.000000,,,,,
472,,,,,"{'description': 'Postal Code is not in the proper Format. 1', 'code': '005'}",,10-30-039-20W4,93895877460992.000000,-0.000000,,,,,
473,,,,,"{'description': 'Postal Code is not in the proper Format. 1', 'code': '005'}",,14-20-041-01W4,93895892805184.000000,-0.000000,,,,,
474,,,,,"{'description': 'Postal Code is not in the proper Format. 1', 'code': '005'}",,15-17-044-18W4,93895896554280.000000,-0.000000,,,,,
475,,,,,"{'description': 'Postal Code is not in the proper Format. 1', 'code': '005'}",,12-19-051-04W4,93895875298440.000000,-0.000000,,,,,
476,,,,,"{'description': 'Postal Code is not in the proper Format. 1', 'code': '005'}",,12-04-063-08W4,93895882617904.000000,-0.000000,,,,,
477,,,,,"{'description': 'Postal Code is not in the proper Format. 1', 'code': '005'}",,03-17-063-05W6,93895903216272.000000,-0.000000,,,,,
478,,,,,"{'description': 'Postal Code is not in the proper Format. 1', 'code': '005'}",,14-28-022-01W5,93895879778480.000000,-0.000000,,,,,
479,,,,,"{'description': 'Postal Code is not in the proper Format. 1', 'code': '005'}",,06-18-049-08W5,93895937257744.000000,-0.000000,,,,,
480,,,,,"{'description': 'Postal Code is not in the proper Format. 1', 'code': '005'}",,15-07-040-02W4,93895803009344.000000,-0.000000,,,,,
481,,,,,"{'description': 'Postal Code is not in the proper Format. 1', 'code': '005'}",,09-04-040-03W5,93895967882376.000000,-0.000000,,,,,
482,,,,,"{'description': 'Postal Code is not in the proper Format. 1', 'code': '005'}",,12-05-054-20W5,93895786674888.000000,-0.000000,,,,,
483,,,,,"{'description': 'Postal Code is not in the proper Format. 1', 'code': '005'}",,07-10-061-22W5,93895821340216.000000,-0.000000,,,,,
484,,,,,"{'description': 'Postal Code is not in the proper Format. 1', 'code': '005'}",,08-34-073-10W6,93895785696792.000000,-0.000000,,,,,
485,,,,,"{'description': 'Postal Code is not in the proper Format. 1', 'code': '005'}",,16-16-013-02W4,93895818144256.000000,-0.000000,,,,,
486,,,,,"{'description': 'Postal Code is not in the proper Format. 1', 'code': '005'}",,10-23-016-13W4,93895966658800.000000,-0.000000,,,,,
487,,,,,"{'description': 'Postal Code is not in the proper Format. 1', 'code': '005'}",,14-12-027-22W4,93895908033552.000000,-0.000000,,,,,
488,,,,,"{'description': 'Postal Code is not in the proper Format. 1', 'code': '005'}",,10-33-035-06W4,93895772336944.000000,-0.000000,,,,,
489,,,,,"{'description': 'Postal Code is not in the proper Format. 1', 'code': '005'}",,01-01-054-18W5,93895955841432.000000,-0.000000,,,,,
490,,,,,"{'description': 'Postal Code is not in the proper Format. 1', 'code': '005'}",,08-15-047-27W4,93895942221184.000000,-0.000000,,,,,
491,,,,,"{'description': 'Postal Code is not in the proper Format. 1', 'code': '005'}",,14-14-053-02W4,93895842125312.000000,-0.000000,,,,,
492,,,,,"{'description': 'Postal Code is not in the proper Format. 1', 'code': '005'}",,01-35-039-24W4,93895781580008.000000,-0.000000,,,,,
493,,,,,"{'description': 'Postal Code is not in the proper Format. 1', 'code': '005'}",,15-24-054-16W5,93895970397048.000000,-0.000000,,,,,
494,,,,,"{'description': 'Postal Code is not in the proper Format. 1', 'code': '005'}",,13-11-039-10W4,93895949115072.000000,-0.000000,,,,,
495,,,,,"{'description': 'Postal Code is not in the proper Format. 1', 'code': '005'}",,14-27-047-07W5,93895820381968.000000,-0.000000,,,,,
496,,,,,"{'description': 'Postal Code is not in the proper Format. 1', 'code': '005'}",,02-09-064-11W5,93895814283272.000000,-0.000000,,,,,
497,,,,,"{'description': 'Postal Code is not in the proper Format. 1', 'code': '005'}",,09-06-065-03W4,93895799031744.000000,-0.000000,,,,,
498,,,,,"{'description': 'Postal Code is not in the proper Format. 1', 'code': '005'}",,16-22-029-21W4,93895878675912.000000,-0.000000,,,,,
499,,,,,"{'description': 'Postal Code is not in the proper Format. 1', 'code': '005'}",,13-01-043-22W4,93895785819728.000000,-0.000000,,,,,
500,,,,,"{'description': 'Postal Code is not in the proper Format. 1', 'code': '005'}",,07-09-032-23W4,93895774337880.000000,-0.000000,,,,,
501,,,,,"{'description': 'Postal Code is not in the proper Format. 1', 'code': '005'}",,05-34-033-05W5,93895774512240.000000,-0.000000,,,,,
502,,,,,"{'description': 'Postal Code is not in the proper Format. 1', 'code': '005'}",,06-21-049-25W4,93895786170056.000000,-0.000000,,,,,
503,780,America/Edmonton,1,Barrhead County No. 11,,LSD-09 SEC-05 TWP-058 RGE-01 MER-5,05-01-058-05W4,53.989140,-114.101009,T8R0K6,AB,Range Road 14,1,58025
504,,,,,"{'description': 'Postal Code is not in the proper Format. 1', 'code': '005'}",,NE-12-063-06W4,93895776738808.000000,-0.000000,,,,,
505,,,,,"{'description': 'Postal Code is not in the proper Format. 1', 'code': '005'}",,NW-09-027-03W5,93895903219008.000000,-0.000000,,,,,
506,,,,,"{'description': 'Postal Code is not in the proper Format. 1', 'code': '005'}",,16-14-080-07W6,93895814761896.000000,-0.000000,,,,,
507,587,America/Edmonton,,Reg Mun of Wood Buffalo,,LSD-09 SEC-14 TWP-090 RGE-12 MER-4,04-12-090-14W4,56.746012,-111.503623,T9K8A9,AB,Tower RD,,1
508,,,,,"{'description': 'Postal Code is not in the proper Format. 1', 'code': '005'}",,10-25-014-11W4,93895888790808.000000,-0.000000,,,,,
509,587,America/Edmonton,1,Red Deer County,,LSD-09 SEC-08 TWP-036 RGE-27 MER-4,08-36-027-04W4,52.084791,-113.813832,T4G0E3,AB,Range Road 274,1,36201
510,,,,,"{'description': 'Postal Code is not in the proper Format. 1', 'code': '005'}",,03-34-051-08W5,93895924412536.000000,-0.000000,,,,,
511,,,,,"{'description': 'Postal Code is not in the proper Format. 1', 'code': '005'}",,16-24-065-06W4,93895814984496.000000,-0.000000,,,,,
512,587,America/Edmonton,1,Kneehill County,,LSD-09 SEC-01 TWP-033 RGE-26 MER-4,01-33-026-04W5,51.809145,-113.548147,T0M2G0,AB,Range Road 260,1,33067
513,,,,,"{'description': 'Postal Code is not in the proper Format. 1', 'code': '005'}",,NW-18-030-07W5,93895853635528.000000,-0.000000,,,,,
514,587,America/Edmonton,1,Athabasca County,,LSD-09 SEC-16 TWP-072 RGE-18 MER-4,04-18-072-16W4,55.221004,-112.636353,T0A0P0,AB,Round Lake Campsite RD,1,1
515,,,,,"{'description': 'Postal Code is not in the proper Format. 1', 'code': '005'}",,14-34-048-08W5,93895948757168.000000,-0.000000,,,,,
516,,,,,"{'description': 'Postal Code is not in the proper Format. 1', 'code': '005'}",,07-02-099-10W6,93895990921032.000000,-0.000000,,,,,
517,,,,,"{'description': 'Postal Code is not in the proper Format. 1', 'code': '005'}",,14-36-114-06W6,93895810877408.000000,-0.000000,,,,,
518,,,,,"{'description': 'Postal Code is not in the proper Format. 1', 'code': '005'}",,13-13-057-06W4,93895771273368.000000,-0.000000,,,,,
519,,,,,"{'description': 'Postal Code is not in the proper Format. 1', 'code': '005'}",,16-09-074-08W6,93895906004952.000000,-0.000000,,,,,
520,,,,I.D. No. 9 Banff,,LSD-09 SEC-14 TWP-028 RGE-11 MER-5,14-28-011-05W4,51.247324,-115.499925,T1L9A4,AB,TOWNSHIP ROAD 264A,,1
521,,,,,"{'description': 'Postal Code is not in the proper Format. 1', 'code': '005'}",,06-30-017-08W4,93895779819360.000000,-0.000000,,,,,
522,587,America/Edmonton,1,Paintearth County No. 18,,LSD-09 SEC-22 TWP-039 RGE-10 MER-4,04-10-039-22W4,52.375969,-111.348387,T0C0R0,AB,Range Road 102,1,39401
523,,,,,"{'description': 'Postal Code is not in the proper Format. 1', 'code': '005'}",,14-28-082-21W4,93895774562568.000000,-0.000000,,,,,
524,,,,,"{'description': 'Postal Code is not in the proper Format. 1', 'code': '005'}",,16-33-084-08W6,93895831794144.000000,-0.000000,,,,,
525,,,,,"{'description': 'Postal Code is not in the proper Format. 1', 'code': '005'}",,10-35-015-22W4,93895830992072.000000,-0.000000,,,,,
526,,,,,"{'description': 'Postal Code is not in the proper Format. 1', 'code': '005'}",,02-21-038-07W5,93895815861896.000000,-0.000000,,,,,
527,,,,,"{'description': 'Postal Code is not in the proper Format. 1', 'code': '005'}",,07-31-041-12W4,93895818172624.000000,-0.000000,,,,,
528,,,,,"{'description': 'Postal Code is not in the proper Format. 1', 'code': '005'}",,16-10-044-02W5,93895813316672.000000,-0.000000,,,,,
529,,,,,"{'description': 'Postal Code is not in the proper Format. 1', 'code': '005'}",,08-24-055-22W4,93895902515312.000000,-0.000000,,,,,
530,,,,,"{'description': 'Postal Code is not in the proper Format. 1', 'code': '005'}",,14-10-072-18W5,93895962638464.000000,-0.000000,,,,,
531,,,,,"{'description': 'Postal Code is not in the proper Format. 1', 'code': '005'}",,01-08-080-21W4,93895901362392.000000,-0.000000,,,,,
532,,,,,"{'description': 'Postal Code is not in the proper Format. 1', 'code': '005'}",,05-28-093-09W6,93895887716768.000000,-0.000000,,,,,
533,,,,,"{'description': 'Postal Code is not in the proper Format. 1', 'code': '005'}",,12-13-039-01W5,93895818871160.000000,-0.000000,,,,,
534,,,,,"{'description': 'Postal Code is not in the proper Format. 1', 'code': '005'}",,06-28-041-14W4,93895796648432.000000,-0.000000,,,,,
535,,,,,"{'description': 'Postal Code is not in the proper Format. 1', 'code': '005'}",,01-24-045-01W5,93895882073520.000000,-0.000000,,,,,
536,,,,,"{'description': 'Postal Code is not in the proper Format. 1', 'code': '005'}",,11-35-048-09W5,93895773375408.000000,-0.000000,,,,,
537,,,,,"{'description': 'Postal Code is not in the proper Format. 1', 'code': '005'}",,01-12-045-06W4,93895843004608.000000,-0.000000,,,,,
538,,,,,"{'description': 'Postal Code is not in the proper Format. 1', 'code': '005'}",,15-30-049-08W5,93895774938336.000000,-0.000000,,,,,
539,,,,,"{'description': 'Postal Code is not in the proper Format. 1', 'code': '005'}",,10-05-069-22W4,93895951841776.000000,-0.000000,,,,,
540,,,,,"{'description': 'Postal Code is not in the proper Format. 1', 'code': '005'}",,09-08-071-20W4,93895905633760.000000,-0.000000,,,,,
541,,,,,"{'description': 'Postal Code is not in the proper Format. 1', 'code': '005'}",,03-20-095-06W5,93895953293632.000000,-0.000000,,,,,
542,,,,,"{'description': 'Postal Code is not in the proper Format. 1', 'code': '005'}",,11-06-110-04W6,93895962774528.000000,-0.000000,,,,,
543,,,,,"{'description': 'Postal Code is not in the proper Format. 1', 'code': '005'}",,09-17-016-24W4,93895779598544.000000,-0.000000,,,,,
544,,,1,Provost,,LSD-09 SEC-07 TWP-037 RGE-01 MER-4,04-01-037-07W4,52.168601,-110.123977,T0B0M0,AB,Range Road 15,1,371075
545,250,,,PEACE RIVER,,LSD-09 SEC-11 TWP-096 RGE-13 MER-6,06-13-096-11W4,57.138533,-120.640237,V0C2S0,BC,PDR RD,,24839
546,,,,,"{'description': 'Postal Code is not in the proper Format. 1', 'code': '005'}",,11-18-041-01W4,93895816006824.000000,-0.000000,,,,,
547,,,,,"{'description': 'Postal Code is not in the proper Format. 1', 'code': '005'}",,06-18-050-07W5,93895771927144.000000,-0.000000,,,,,
548,,,,,"{'description': 'Postal Code is not in the proper Format. 1', 'code': '005'}",,16-34-029-21W4,93895892044744.000000,-0.000000,,,,,
549,,,,,"{'description': 'Postal Code is not in the proper Format. 1', 'code': '005'}",,13-12-029-24W4,93895920038784.000000,-0.000000,,,,,
550,,,,,"{'description': 'Postal Code is not in the proper Format. 1', 'code': '005'}",,13-36-055-07W4,93895830874056.000000,-0.000000,,,,,
551,,,,,"{'description': 'Postal Code is not in the proper Format. 1', 'code': '005'}",,09-08-056-06W4,93895782396184.000000,-0.000000,,,,,
552,,,,,"{'description': 'Postal Code is not in the proper Format. 1', 'code': '005'}",,04-29-057-21W4,93895831540192.000000,-0.000000,,,,,
553,,,,,"{'description': 'Postal Code is not in the proper Format. 1', 'code': '005'}",,15-02-063-05W4,93895773233776.000000,-0.000000,,,,,
554,,,,,"{'description': 'Postal Code is not in the proper Format. 1', 'code': '005'}",,16-09-084-20W5,93895793748656.000000,-0.000000,,,,,
555,,,,,"{'description': 'Postal Code is not in the proper Format. 1', 'code': '005'}",,15-16-096-11W6,93895773912016.000000,-0.000000,,,,,
556,587,America/Edmonton,1,Willow Creek,,LSD-09 SEC-04 TWP-017 RGE-28 MER-4,04-17-028-04W5,50.398645,-113.780848,T0P1R0,AB,Township Road 170 N/A,1,28301
557,,,,,"{'description': 'Postal Code is not in the proper Format. 1', 'code': '005'}",,02-28-051-27W4,93895775079664.000000,-0.000000,,,,,
558,,,,,"{'description': 'Postal Code is not in the proper Format. 1', 'code': '005'}",,12-07-019-02W5,93895792978456.000000,-0.000000,,,,,
559,,,,,"{'description': 'Postal Code is not in the proper Format. 1', 'code': '005'}",,06-33-049-05W5,93895774498760.000000,-0.000000,,,,,
560,,,,,"{'description': 'Postal Code is not in the proper Format. 1', 'code': '005'}",,07-25-050-05W4,93895814391696.000000,-0.000000,,,,,
561,587,America/Edmonton,1,Minburn,,LSD-09 SEC-22 TWP-050 RGE-12 MER-4,04-12-050-22W4,53.335026,-111.664101,T0B3B0,AB,Township Road 504 N/A,1,12201
562,,,,,"{'description': 'Postal Code is not in the proper Format. 1', 'code': '005'}",,01-01-050-07W5,93895831302536.000000,-0.000000,,,,,
563,,,,,"{'description': 'Postal Code is not in the proper Format. 1', 'code': '005'}",,09-09-103-03W6,93895961751144.000000,-0.000000,,,,,
564,,,,,"{'description': 'Postal Code is not in the proper Format. 1', 'code': '005'}",,14-23-037-09W4,93895944778808.000000,-0.000000,,,,,
565,587,America/Edmonton,1,Paintearth County No. 18,,LSD-09 SEC-18 TWP-038 RGE-10 MER-4,04-10-038-18W4,52.259373,-111.409550,T0C0R0,AB,Range Road 105,1,38201
566,,,,,"{'description': 'Postal Code is not in the proper Format. 1', 'code': '005'}",,06-35-013-16W4,93895921957296.000000,-0.000000,,,,,
567,,,,,"{'description': 'Postal Code is not in the proper Format. 1', 'code': '005'}",,06-15-042-09W5,93895824411384.000000,-0.000000,,,,,
568,,,,,"{'description': 'Postal Code is not in the proper Format. 1', 'code': '005'}",,11-36-044-22W4,93895904496968.000000,-0.000000,,,,,
569,587,America/Edmonton,,Improvement District No. 12 Jasper Park,,LSD-09 SEC-05 TWP-049 RGE-03 MER-6,06-03-049-05W5,53.040165,-118.090878,T0E1E0,AB,16 HWY,,47267
570,,,,,"{'description': 'Postal Code is not in the proper Format. 1', 'code': '005'}",,01-13-050-09W5,93895826108016.000000,-0.000000,,,,,
571,,,,,"{'description': 'Postal Code is not in the proper Format. 1', 'code': '005'}",,16-13-053-06W5,93895871494720.000000,-0.000000,,,,,
572,,,,,"{'description': 'Postal Code is not in the proper Format. 1', 'code': '005'}",,05-29-082-20W4,93895774628640.000000,-0.000000,,,,,
573,,,1,Special Area,,LSD-09 SEC-02 TWP-031 RGE-14 MER-4,04-14-031-02W4,51.619853,-111.879142,T0J1T0,AB,Township Road 310 N/A,1,14201
574,,,,,"{'description': 'Postal Code is not in the proper Format. 1', 'code': '005'}",,01-11-039-07W5,93895926941928.000000,-0.000000,,,,,
575,,,,,"{'description': 'Postal Code is not in the proper Format. 1', 'code': '005'}",,16-31-050-01W4,93895888391080.000000,-0.000000,,,,,
576,,,,,"{'description': 'Postal Code is not in the proper Format. 1', 'code': '005'}",,06-19-017-06W4,93895836236760.000000,-0.000000,,,,,
577,587,America/Edmonton,1,Paintearth County No. 18,,LSD-09 SEC-03 TWP-040 RGE-14 MER-4,04-14-040-03W4,52.404804,-111.924169,T0B1R0,AB,Range Road 142,1,40001
578,,,,,"{'description': 'Postal Code is not in the proper Format. 1', 'code': '005'}",,10-19-045-11W5,93895774817880.000000,-0.000000,,,,,
579,,,,,"{'description': 'Postal Code is not in the proper Format. 1', 'code': '005'}",,13-13-056-21W4,93895779570296.000000,-0.000000,,,,,
580,,,,,"{'description': 'Postal Code is not in the proper Format. 1', 'code': '005'}",,10-31-071-04W5,93895827952728.000000,-0.000000,,,,,
581,,,,,"{'description': 'Postal Code is not in the proper Format. 1', 'code': '005'}",,02-29-041-12W4,93895966402488.000000,-0.000000,,,,,
582,,,,,"{'description': 'Postal Code is not in the proper Format. 1', 'code': '005'}",,07-26-048-21W4,93895828094040.000000,-0.000000,,,,,
583,587,America/Edmonton,,Yellowhead County,,LSD-09 SEC-02 TWP-051 RGE-17 MER-5,05-17-051-02W4,53.319891,-116.171104,T0E0T9,AB,Range Road 155,,50229
584,,,,,"{'description': 'Postal Code is not in the proper Format. 1', 'code': '005'}",,11-20-057-21W4,93895828046560.000000,-0.000000,,,,,
585,,,,,"{'description': 'Postal Code is not in the proper Format. 1', 'code': '005'}",,13-29-061-05W4,93895906682848.000000,-0.000000,,,,,
586,,,,,"{'description': 'Postal Code is not in the proper Format. 1', 'code': '005'}",,03-08-079-25W5,93895782401624.000000,-0.000000,,,,,
587,,,,,"{'description': 'Postal Code is not in the proper Format. 1', 'code': '005'}",,12-05-026-12W4,93895903872336.000000,-0.000000,,,,,
588,780,America/Edmonton,1,Leduc,,LSD-09 SEC-16 TWP-049 RGE-03 MER-5,05-03-049-16W5,53.228890,-114.367782,T9C2T0,AB,Township Road 492A N/A,1,3231
589,"780,587",America/Edmonton,,Bonnyville,,LSD-09 SEC-09 TWP-067 RGE-07 MER-4,04-07-067-09W5,54.650517,-110.924818,T9M0V0,AB,Range Road 73 N/A,,64424
590,,,,,"{'description': 'Postal Code is not in the proper Format. 1', 'code': '005'}",,08-22-112-06W6,93895988720512.000000,-0.000000,,,,,
591,,,1,Lethbridge,,LSD-09 SEC-16 TWP-013 RGE-20 MER-4,04-20-013-16W4,50.077691,-112.644505,T0K1G0,AB,Township Road 132 N/A,1,20131
592,,,,,"{'description': 'Postal Code is not in the proper Format. 1', 'code': '005'}",,11-04-011-13W4,93895857997808.000000,-0.000000,,,,,
593,,,,,"{'description': 'Postal Code is not in the proper Format. 1', 'code': '005'}",,15-24-015-08W4,93895894293504.000000,-0.000000,,,,,
594,,,,,"{'description': 'Postal Code is not in the proper Format. 1', 'code': '005'}",,11-29-036-08W4,93895790780120.000000,-0.000000,,,,,
595,,,,,"{'description': 'Postal Code is not in the proper Format. 1', 'code': '005'}",,04-34-040-07W4,93895844419472.000000,-0.000000,,,,,
596,,,,,"{'description': 'Postal Code is not in the proper Format. 1', 'code': '005'}",,08-20-042-28W4,93895782070520.000000,-0.000000,,,,,
597,"780,587",America/Edmonton,1,Grande Prairie,,LSD-09 SEC-11 TWP-070 RGE-04 MER-6,06-04-070-11W5,55.134835,-118.408874,T0H3H0,AB,Range Road 34 N/A,1,71202
598,587,America/Edmonton,1,Birch Hills,,LSD-09 SEC-10 TWP-077 RGE-04 MER-6,06-04-077-10W6,55.664796,-118.516600,T0H3V0,AB,Township Road 772 N/A,1,4201
599,,,,,"{'description': 'Postal Code is not in the proper Format. 1', 'code': '005'}",,06-26-039-24W4,93895774718192.000000,-0.000000,,,,,
